id,street_address,city,state,zip_code
3,4901 Huntington Drive N,Los Angeles,CA,90032
10,1705 N Commonwealth Avenue,Los Angeles,CA,90027
11,1305 N Catalina Street,Los Angeles,CA,90027
22,11601 Wilshire Blvd Suite #500,Los Angeles,CA,90025
24,1833 Benecia Avenue,Los Angeles,CA,90025
27,1640 S Sepulveda Blvd,Los Angeles,CA,90025
36,307 E Jefferson Blvd,Los Angeles,CA,90011
39,5711 1/2 Huntington Drive N,Los Angeles,CA,90032
40,3645 Mckenzie Avenue,Los Angeles,CA,90032
41,5117 Huntington Drive N,Los Angeles,CA,90032
46,4615 Grey Drive Unit #4,Los Angeles,CA,90032
48,5220 W Sunset Blvd,Los Angeles,CA,90027
50,4440 Lowell Avenue,Los Angeles,CA,90032
56,1917 Rodney Drive #319,Los Angeles,CA,90027
60,11041 Santa Monica Blvd #720,Los Angeles,CA,90025
62,12100 Wilshire Blvd Suite #1150,Los Angeles,CA,90025
66,11551 Santa Monica Blvd,Los Angeles,CA,90025
70,360 E Jefferson Blvd,Los Angeles,CA,90011
72,2206 S Central Avenue,Los Angeles,CA,90011
83,2424 Lyric Avenue,Los Angeles,CA,90027
89,11645 Wilshire Blvd #1065,Los Angeles,CA,90025
93,1436 E Slauson Avenue,Los Angeles,CA,90011
97,4803 Converse Street,Los Angeles,CA,90032
103,1567 N Serrano Avenue,Los Angeles,CA,90027
106,11601 Wilshire Blvd Suite #2150,Los Angeles,CA,90025
116,11766 Wilshire Blvd Floor #9Th,Los Angeles,CA,90025
134,1187 E 58Th Street,Los Angeles,CA,90011
136,2019 Thayer Avenue,Los Angeles,CA,90025
141,1245 E 40Th Place,Los Angeles,CA,90011
146,1324 N Kingsley Drive,Los Angeles,CA,90027
152,239 E 53Rd Street,Los Angeles,CA,90011
154,2526 Hyperion Avenue Unit #3,Los Angeles,CA,90027
170,1849 Sawtelle Blvd Suite #543,Los Angeles,CA,90025
171,441 E 28Th Street,Los Angeles,CA,90011
172,4322 S Central Avenue,Los Angeles,CA,90011
174,1818 Sawtelle Blvd,Los Angeles,CA,90025
175,1302 S Saltair Avenue #2,Los Angeles,CA,90025
177,11755 Wilshire Blvd Floor #15,Los Angeles,CA,90025
190,11601 Wilshire Blvd Suite #500,Los Angeles,CA,90025
192,5173 W Sunset Blvd,Los Angeles,CA,90027
197,3804 Evans Street,Los Angeles,CA,90027
198,3715 Winchester Avenue,Los Angeles,CA,90032
199,1418 Amherst Avenue #1,Los Angeles,CA,90025
200,2075 De Mille Drive,Los Angeles,CA,90027
201,11645 Wilshire Blvd Suite #987,Los Angeles,CA,90025
202,4325 Sunset Drive Suite #209,Los Angeles,CA,90027
203,11110 Ohio Avenue #108,Los Angeles,CA,90025
205,4600 Compton Avenue,Los Angeles,CA,90011
206,4647 Russell Avenue,Los Angeles,CA,90027
207,5055 Franklin Avenue,Los Angeles,CA,90027
208,1521 Greenfield Avenue #105,Los Angeles,CA,90025
209,5123 W Sunset Blvd Unit #201,Los Angeles,CA,90027
210,1927 Prosser Avenue,Los Angeles,CA,90025
214,3249 N Eastern Avenue,Los Angeles,CA,90032
215,445 E 29Th Street,Los Angeles,CA,90011
216,1822 Westwood Blvd,Los Angeles,CA,90025
218,1737 Butler Avenue,Los Angeles,CA,90025
227,4412 1/4 Kingswell Avenue,Los Angeles,CA,90027
229,1550 N Hobart Blvd #205,Los Angeles,CA,90027
230,1155 E 28Th Street,Los Angeles,CA,90011
235,1920 Hillhurst Avenue Unit #244,Los Angeles,CA,90027
238,4348 W Rose Hill Drive,Los Angeles,CA,90032
247,1866 N Edgemont Street,Los Angeles,CA,90027
254,11111 Santa Monica Blvd #1840,Los Angeles,CA,90025
256,1534 Greenfield Avenue Apt #101,Los Angeles,CA,90025
266,1223 Federal Avenue #115,Los Angeles,CA,90025
284,11847 Wilshire Blvd #300,Los Angeles,CA,90025
287,12100 Wilshire Blvd Stop #808,Los Angeles,CA,90025
288,959 E 31St Street,Los Angeles,CA,90011
290,12121 Wilshire Blvd Suite #600,Los Angeles,CA,90025
292,11555 Nebraska Avenue Unit #2,Los Angeles,CA,90025
294,4800 Valley Blvd,Los Angeles,CA,90032
305,5105 W Sunset Blvd,Los Angeles,CA,90027
306,3816 Sunset Drive,Los Angeles,CA,90027
310,4425 Avocado Street,Los Angeles,CA,90027
312,1819 N Commonwealth Avenue #4,Los Angeles,CA,90027
314,4203 Hatfield Place,Los Angeles,CA,90032
316,3160 Riverside Drive,Los Angeles,CA,90027
322,1933 Pontius Avenue,Los Angeles,CA,90025
329,2001 S Barrington Avenue #301,Los Angeles,CA,90025
331,12203 Santa Monica Blvd,Los Angeles,CA,90025
335,5101 Mckinley Avenue,Los Angeles,CA,90011
339,2130 Sawtelle Blvd #207,Los Angeles,CA,90025
340,11853 Santa Monica Blvd,Los Angeles,CA,90025
342,1125 E 52Nd Street,Los Angeles,CA,90011
346,11870 Santa Monica Blvd Suite #100,Los Angeles,CA,90025
347,2148 Federal Avenue Suite #B,Los Angeles,CA,90025
361,4849 Hillsdale Drive,Los Angeles,CA,90032
365,1441 E 53Rd Street,Los Angeles,CA,90011
366,2201 Trinity Street,Los Angeles,CA,90011
369,12422 Santa Monica Blvd,Los Angeles,CA,90025
373,1545 Sawtelle Blvd Suite #33,Los Angeles,CA,90025
381,4212 Los Feliz Blvd #2,Los Angeles,CA,90027
390,2223 Nella Vista Avenue,Los Angeles,CA,90027
391,2180 S Beverly Glen Blvd Suite #368,Los Angeles,CA,90025
407,2020 S Bundy Drive,West Los Angeles,CA,90025
408,946 E 29Th Street,Los Angeles,CA,90011
416,708 E 27Th Street,Los Angeles,CA,90011
419,2312 Richland Avenue,Los Angeles,CA,90027
420,1842 Purdue Avenue #104,Los Angeles,CA,90025
423,4322 S Central Avenue,Los Angeles,CA,90011
424,1427 Sanborn Avenue,Los Angeles,CA,90027
425,11766 Wilshire Blvd Floor #9,Los Angeles,CA,90025
437,2146 Malcolm Avenue,Los Angeles,CA,90025
438,4830 Huntington Drive S,Los Angeles,CA,90032
442,5581 Huntington Drive N,Los Angeles,CA,90032
443,2055 Rodney Drive #101,Los Angeles,CA,90027
444,530 E 25Th Street,Los Angeles,CA,90011
445,4569 Valley Blvd,Los Angeles,CA,90032
447,5110 Los Hermosos Way,Los Angeles,CA,90027
452,11601 Wilshire Blvd #420,Los Angeles,CA,90025
455,2061 1/2 N Vermont Avenue,Los Angeles,CA,90027
463,1523 N Commonwealth Avenue,Los Angeles,CA,90027
467,3309 Linda Vista Terrace,Los Angeles,CA,90032
471,4520 Kingswell Avenue,Los Angeles,CA,90027
474,2001 S Barrington Avenue Suite #301,Los Angeles,CA,90025
481,4455 Los Feliz Blvd #408,Los Angeles,CA,90027
485,4151 Prospect Avenue,Los Angeles,CA,90027
486,12401 Wilshire Blvd Suite #303,Los Angeles,CA,90025
488,10436 Santa Monica Blvd Unit #3005,Los Angeles,CA,90025
490,2350 Lyric Avenue,Los Angeles,CA,90027
492,11755 Wilshire Blvd #1350,Los Angeles,CA,90025
498,11755 Wilshire Blvd #1800,Los Angeles,CA,90025
504,1864 N Vermont Avenue,Los Angeles,CA,90027
505,1866 N Edgemont Street,Los Angeles,CA,90027
508,1943 N Mariposa Avenue,Los Angeles,CA,90027
513,1931 Malcolm Avenue Unit #103,Los Angeles,CA,90025
520,5220 Hollywood Blvd,Los Angeles,CA,90027
534,3501 Monterey Road,Los Angeles,CA,90032
536,11825 Santa Monica Blvd,Los Angeles,CA,90025
540,5382 Poplar Blvd Front,Los Angeles,CA,90032
543,1421 Barry Avenue,Los Angeles,CA,90025
546,4434 Lowell Avenue,Los Angeles,CA,90032
553,3912 Collis Avenue,Los Angeles,CA,90032
557,4871 Twining Street,Los Angeles,CA,90032
569,307 E Jefferson Blvd Unit #319,Los Angeles,CA,90011
570,926 E Slauson Avenue,Los Angeles,CA,90011
575,3919 Prospect Avenue,Los Angeles,CA,90027
582,1950 Sawtelle Blvd #110,Los Angeles,CA,90025
589,1850 N Harvard Blvd #16,Los Angeles,CA,90027
591,1437 S Bentley Avenue,Los Angeles,CA,90025
598,3808 Los Feliz Blvd,Los Angeles,CA,90027
599,2028 Manning Avenue,Los Angeles,CA,90025
601,11819 Wilshire Blvd #205,Los Angeles,CA,90025
604,1336 N New Hampshire Avenue #2,Los Angeles,CA,90027
605,4410 Avalon Blvd,Los Angeles,CA,90011
613,1541 Rodney Drive,Los Angeles,CA,90027
617,1961 Palmerston Place #202,Los Angeles,CA,90027
622,5217 Hollywood Blvd Unit #712,Los Angeles,CA,90027
624,12100 Wilshire Blvd #550,Los Angeles,CA,90025
626,5238 Los Franciscos Way,Los Angeles,CA,90027
636,1582 E 23Rd Street,Los Angeles,CA,90011
639,1410 S Bentley Avenue Unit #104,Los Angeles,CA,90025
640,4905 Hollywood Blvd,Los Angeles,CA,90027
641,140 E Jefferson Blvd,Los Angeles,CA,90011
651,2001 S Barrington Avenue Suite #111,Los Angeles,CA,90025
652,4651 Huntington Drive S #A,Los Angeles,CA,90032
658,3717 Los Feliz Blvd Apt #8,Los Angeles,CA,90027
659,2001 S Barrington Avenue Suite #118,Los Angeles,CA,90025
661,1870 Veteran Avenue #204,Los Angeles,CA,90025
662,1412 N Kingsley Drive,Los Angeles,CA,90027
665,1919 S San Pedro Street,Los Angeles,CA,90011
667,1532 S Bundy Drive Apt #E,Los Angeles,CA,90025
671,12100 Wilshire Blvd #800,Los Angeles,CA,90025
674,1545 Sawtelle Blvd Suite #36,Los Angeles,CA,90025
675,901 E 31St Street Suite #202,Los Angeles,CA,90011
691,1686 E 41St Street,Los Angeles,CA,90011
699,3231 Dorchester Avenue,Los Angeles,CA,90032
701,1929 Westwood Blvd,Los Angeles,CA,90025
704,801 E Slauson Avenue,Los Angeles,CA,90011
708,11567 Iowa Avenue,Los Angeles,CA,90025
709,5370 Alhambra Avenue,Los Angeles,CA,90032
712,11870 Santa Monica Blvd Suite #106,Los Angeles,CA,90025
713,1939 Hillhurst Avenue,Los Angeles,CA,90027
719,2712 Griffith Park Blvd,Los Angeles,CA,90027
721,706 E Vernon Avenue,Los Angeles,CA,90011
722,4307 San Pedro Place,Los Angeles,CA,90011
726,1920 Hillhurst Avenue Building #162,Los Angeles,CA,90027
729,1427 Sanborn Avenue,Los Angeles,CA,90027
731,4645 Huntington Drive N,Los Angeles,CA,90032
733,1410 Wellesley Avenue #204,Los Angeles,CA,90025
736,556 E 31St Street #A,Los Angeles,CA,90011
738,4618 Los Feliz Blvd #3,Los Angeles,CA,90027
739,11614 Santa Monica Blvd,Los Angeles,CA,90025
740,1063 E 43Rd Street,Los Angeles,CA,90011
741,11755 Wilshire Blvd #2320,Los Angeles,CA,90025
742,1220 E 58Th Street,Los Angeles,CA,90011
747,307 E Jefferson Blvd,Los Angeles,CA,90011
755,755 E 47Th Street,Los Angeles,CA,90011
761,4063 Adair Street,Los Angeles,CA,90011
776,11601 Wilshire Blvd Suite #2490,Los Angeles,CA,90025
780,4058 Woking Way,Los Angeles,CA,90027
781,2007 Sawtelle Blvd #6,Los Angeles,CA,90025
789,4900 Alhambra Avenue,Los Angeles,CA,90032
790,2300 Hyperion Avenue,Los Angeles,CA,90027
794,1535 Granville Avenue #106,Los Angeles,CA,90025
798,4236 Stillwell Avenue Apt #2,Los Angeles,CA,90032
804,655 E 30Th Street,Los Angeles,CA,90011
805,4470 W Sunset Blvd Suite #547,Los Angeles,CA,90027
806,1990 S Bundy Drive Suite #500,Los Angeles,CA,90025
811,1941 Pontius Avenue,Los Angeles,CA,90025
837,4539 Prospect Avenue,Los Angeles,CA,90027
846,4470 W Sunset Blvd Suite #107,Los Angeles,CA,90027
848,12100 Wilshire Blvd Suite #705,Los Angeles,CA,90025
849,2015 S Beverly Glen Blvd #302,Los Angeles,CA,90025
865,4227 Maycrest Avenue,Los Angeles,CA,90032
866,4415 Ambrose Avenue #1,Los Angeles,CA,90027
870,1410 S Bentley Avenue Unit #104,Los Angeles,CA,90025
872,230 E 55Th Street Rear #B,Los Angeles,CA,90011
877,5248 Huntington Drive S,Los Angeles,CA,90032
880,12424 Wilshire Blvd #860,Los Angeles,CA,90025
881,818 E 29Th Street,Los Angeles,CA,90011
882,2057 Dracena Drive Unit #307,Los Angeles,CA,90027
887,1512 S Centinela Avenue #7,Los Angeles,CA,90025
898,1305 N Vermont Avenue,Los Angeles,CA,90027
899,4657 Melbourne Avenue #20,Los Angeles,CA,90027
902,4574 Finley Avenue #6,Los Angeles,CA,90027
903,711 E 32Nd Street,Los Angeles,CA,90011
915,4424 Van Horne Avenue,Los Angeles,CA,90032
917,1326 N Normandie Avenue Unit #3,Los Angeles,CA,90027
919,3229 Stockbridge Avenue,Los Angeles,CA,90032
934,251 E 31St Street,Los Angeles,CA,90011
937,4074 Los Nietos Drive,Los Angeles,CA,90027
938,5416 1/2 Harold Way,Los Angeles,CA,90027
946,5111 S Central Avenue,Los Angeles,CA,90011
949,2001 S Barrington Avenue Suite #112,Los Angeles,CA,90025
952,1800 Sawtelle Blvd,Los Angeles,CA,90025
957,4327 Woodlawn Avenue,Los Angeles,CA,90011
958,2217 Hyperion Avenue,Los Angeles,CA,90027
962,12009 Wilshire Blvd,Los Angeles,CA,90025
965,11755 Wilshire Blvd Suite #1800,Los Angeles,CA,90025
968,4361 Valley Blvd Unit #A7,Los Angeles,CA,90032
972,1849 Sawtelle Blvd,Los Angeles,CA,90025
973,140 E Jefferson Blvd,Los Angeles,CA,90011
986,4615 Valley Blvd,Los Angeles,CA,90032
998,12121 Wilshire Blvd Suite #1120,Los Angeles,CA,90025
1001,4201 Los Feliz Blvd Apt #4,Los Angeles,CA,90027
1015,1915 N Normandie Avenue,Los Angeles,CA,90027
1016,11957 Santa Monica Blvd #101,Los Angeles,CA,90025
1021,3833 Harriman Avenue,Los Angeles,CA,90032
1026,126 E 47Th Street,Los Angeles,CA,90011
1029,1717 N Normandie Avenue,Los Angeles,CA,90027
1035,3833 Harriman Avenue,Los Angeles,CA,90032
1036,1734 S Westgate Avenue #4,Los Angeles,CA,90025
1037,10340 Santa Monica Blvd,Los Angeles,CA,90025
1038,4171 S Central Avenue,Los Angeles,CA,90011
1042,2001 S Barrington Avenue Suite #121,Los Angeles,CA,90025
1052,4448 Ambrose Avenue,Los Angeles,CA,90027
1056,4425 1/2 Avalon Blvd,Los Angeles,CA,90011
1065,5468 Dobbs Street,Los Angeles,CA,90032
1067,5371 Alhambra Avenue,Los Angeles,CA,90032
1073,1743 N Kenmore Avenue,Los Angeles,CA,90027
1074,1640 S Sepulveda Blvd,Los Angeles,CA,90025
1075,4719 Grey Drive,Los Angeles,CA,90032
1077,2207 Hyperion Avenue,Los Angeles,CA,90027
1081,11645 Wilshire Blvd #803,Los Angeles,CA,90025
1092,2014 S San Pedro Street,Los Angeles,CA,90011
1100,3260 Avalon Blvd,Los Angeles,CA,90011
1111,1554 S Sepulveda Blvd Suite #102,Los Angeles,CA,90025
1114,3930 Los Feliz Blvd #111,Los Angeles,CA,90027
1119,2801 Chadwick Circle,Los Angeles,CA,90032
1123,12003 Wilshire Blvd,Los Angeles,CA,90025
1132,5406 Franklin Avenue #3,Los Angeles,CA,90027
1133,1740 S Westgate Avenue Unit #C,Los Angeles,CA,90025
1135,5301 W Sunset Blvd Suite #6,Los Angeles,CA,90027
1139,2777 Glendower Avenue,Los Angeles,CA,90027
1141,12100 Wilshire Blvd Suite #1150,Los Angeles,CA,90025
1145,3610 S San Pedro Street,Los Angeles,CA,90011
1146,1525 S Saltair Avenue #215A,Los Angeles,CA,90025
1161,4519 Cassatt Street,Los Angeles,CA,90032
1177,1844 N Harvard Blvd #27,Los Angeles,CA,90027
1181,1630 Cotner Avenue,Los Angeles,CA,90025
1183,5213 Ithaca Avenue,Los Angeles,CA,90032
1184,4675 Hollywood Blvd,Los Angeles,CA,90027
1185,4379 Yellowstone Street,Los Angeles,CA,90032
1186,4343 Finley Avenue #4,Los Angeles,CA,90027
1205,1563 E 23Rd Street,Los Angeles,CA,90011
1211,1806 Corinth Avenue #3,Los Angeles,CA,90025
1225,12400 Wilshire Blvd #1180,Los Angeles,CA,90025
1231,12041 Wilshire Blvd Unit #30,Los Angeles,CA,90025
1243,5419 Hollywood Blvd Suite #C253,Los Angeles,CA,90027
1245,12121 Wilshire Blvd #104,Los Angeles,CA,90025
1247,3643 Monon Street,Los Angeles,CA,90027
1268,1525 E 25Th Street,Los Angeles,CA,90011
1273,4801 1/2 Hooper Avenue,Los Angeles,CA,90011
1275,2110 Cotner Avenue,Los Angeles,CA,90025
1280,4822 Compton Avenue,Los Angeles,CA,90011
1282,11050 Santa Monica Blvd Floor #2,Los Angeles,CA,90025
1289,2001 S Barrington Avenue,Los Angeles,CA,90025
1291,2325 Highbury Avenue Unit #67,Los Angeles,CA,90032
1293,5120 Wall Street,Los Angeles,CA,90011
1299,114 E 56Th Street,Los Angeles,CA,90011
1300,1516 S Bundy Drive Unit #204,Los Angeles,CA,90025
1301,1964 Westwood Blvd Suite #340,Los Angeles,CA,90025
1303,4604 Los Feliz Blvd #104,Los Angeles,CA,90027
1308,11860 Wilshire Blvd Suite #100,Los Angeles,CA,90025
1311,1828 Barry Avenue Unit #11,Los Angeles,CA,90025
1312,1305 N Catalina Street,Los Angeles,CA,90027
1313,1309 N Edgemont Street,Los Angeles,CA,90027
1315,3310 Pueblo Avenue,Los Angeles,CA,90032
1317,3930 Van Horne Avenue,Los Angeles,CA,90032
1320,3220 S Central Avenue,Los Angeles,CA,90011
1327,1990 S Bundy Drive #340,Los Angeles,CA,90025
1329,1906 Selby Avenue #4,Los Angeles,CA,90025
1331,1145 E 41St Place,Los Angeles,CA,90011
1333,4801 Templeton Street Unit #B,Los Angeles,CA,90032
1334,3125 Vaquero Avenue,Los Angeles,CA,90032
1335,11022 Santa Monica Blvd Suite #270,Los Angeles,CA,90025
1339,3434 Amesbury Road,Los Angeles,CA,90027
1344,1300 N Western Avenue,Los Angeles,CA,90027
1348,125 E 32Nd Street,Los Angeles,CA,90011
1353,2012 Hyperion Avenue,Los Angeles,CA,90027
1355,2271 Vandalia Avenue,Los Angeles,CA,90032
1360,3007 S Central Avenue,Los Angeles,CA,90011
1363,937 E 33Rd Street,Los Angeles,CA,90011
1366,1649 Talmadge Street,Los Angeles,CA,90027
1369,1567 S Barrington Avenue #6,Los Angeles,CA,90025
1370,5112 Oakland Street,Los Angeles,CA,90032
1371,5440 S Central Avenue #C,Los Angeles,CA,90011
1395,4922 Hollywood Blvd,Los Angeles,CA,90027
1396,2406 N Ditman Avenue,Los Angeles,CA,90032
1398,4139 Camero Avenue,Los Angeles,CA,90027
1399,11558 Rochester Avenue #301,Los Angeles,CA,90025
1403,1923 Kelton Avenue,Los Angeles,CA,90025
1404,4607 Huntington Drive N,Los Angeles,CA,90032
1412,10340 Santa Monica Blvd,Los Angeles,CA,90025
1414,4400 S Central Avenue,Los Angeles,CA,90011
1415,4208 S Central Avenue,Los Angeles,CA,90011
1423,1843 Barry Avenue #4,Los Angeles,CA,90025
1434,5419 Hollywood Blvd Suite #C464,Los Angeles,CA,90027
1453,5001 Compton Avenue,Los Angeles,CA,90011
1461,2031 1/2 N Vermont Avenue,Los Angeles,CA,90027
1464,1875 Benecia Avenue,Los Angeles,CA,90025
1468,1817 Beloit Avenue Apt #22B,Los Angeles,CA,90025
1469,5274 Ithaca Avenue,Los Angeles,CA,90032
1470,5701 S Central Avenue,Los Angeles,CA,90011
1471,4026 Clayton Avenue,Los Angeles,CA,90027
1476,4629 Maubert Avenue,Los Angeles,CA,90027
1477,4020 Compton Avenue,Los Angeles,CA,90011
1479,865 E 47Th Street,Los Angeles,CA,90011
1482,2649 Nevin Avenue,Los Angeles,CA,90011
1483,1701 N Commonwealth Avenue,Los Angeles,CA,90027
1490,2035 Malcolm Avenue,Los Angeles,CA,90025
1493,11728 Wilshire Blvd Apt #B404,Los Angeles,CA,90025
1494,11304 Santa Monica Blvd,Los Angeles,CA,90025
1497,4500 Los Feliz Blvd #C,Los Angeles,CA,90027
1500,5271 Hollywood Blvd,Los Angeles,CA,90027
1504,1507 S Barrington Avenue,Los Angeles,CA,90025
1510,11955 Iowa Avenue #3,Los Angeles,CA,90025
1511,3521 Griffith Park Blvd,Los Angeles,CA,90027
1515,4635 Valley Blvd,Los Angeles,CA,90032
1517,2445 N Vermont Avenue,Los Angeles,CA,90027
1518,4242 Newdale Drive,Los Angeles,CA,90027
1520,11601 Wilshire Blvd Suite #500,Los Angeles,CA,90025
1523,1845 Corinth Avenue #102,Los Angeles,CA,90025
1547,2950 Hyperion Avenue Unit #1/4,Los Angeles,CA,90027
1552,3319 Minto Court,Los Angeles,CA,90032
1559,1920 N Normandie Avenue,Los Angeles,CA,90027
1561,1323 E Adams Blvd,Los Angeles,CA,90011
1563,1950 Butler Avenue,Los Angeles,CA,90025
1571,2011 Lansdowne Avenue,Los Angeles,CA,90032
1575,4645 Melbourne Avenue,Los Angeles,CA,90027
1577,4899 Huntington Drive N,Los Angeles,CA,90032
1582,11766 Wilshire Blvd Suite #840,Los Angeles,CA,90025
1585,1625 N Edgemont Street,Los Angeles,CA,90027
1600,1745 Beloit Avenue,Los Angeles,CA,90025
1601,3520 Holboro Drive,Los Angeles,CA,90027
1602,2409 N Vermont Avenue,Los Angeles,CA,90027
1606,1508 Federal Avenue,Los Angeles,CA,90025
1610,11858 La Grange Avenue,Los Angeles,CA,90025
1612,1216 S Saltair Avenue #101,Los Angeles,CA,90025
1615,2645 Round Drive,Los Angeles,CA,90032
1617,1816 Sawtelle Blvd,Los Angeles,CA,90025
1618,5151 State University Drive,Los Angeles,CA,90032
1621,1809 Overland Avenue #2,Los Angeles,CA,90025
1623,4528 Russell Avenue,Los Angeles,CA,90027
1626,1756 N Berendo Street,Los Angeles,CA,90027
1627,2140 Westwood Blvd Suite #212,Los Angeles,CA,90025
1636,1305 N Catalina Street,Los Angeles,CA,90027
1637,11901 Santa Monica Blvd Suite #210,Los Angeles,CA,90025
1654,4360 Hatfield Place,Los Angeles,CA,90032
1656,400 E Adams Blvd,Los Angeles,CA,90011
1667,12121 Wilshire Blvd Suite #1120,Los Angeles,CA,90025
1668,11850 Wilshire Blvd Suite #201,Los Angeles,CA,90025
1669,669 E 40Th Place,Los Angeles,CA,90011
1670,10635 Santa Monica Blvd Suite #200,Los Angeles,CA,90025
1682,1821 N Alexandria Avenue Unit #5,Los Angeles,CA,90027
1694,1246 Armacost Avenue Penthouse #401,Los Angeles,CA,90025
1695,11620 Wilshire Blvd Suite #580,Los Angeles,CA,90025
1700,1953 Butler Avenue,Los Angeles,CA,90025
1707,1820 N Vermont Avenue,Los Angeles,CA,90027
1709,5224 W Sunset Blvd,Los Angeles,CA,90027
1725,744 E 51St Street,Los Angeles,CA,90011
1728,415 E 32Nd Street Suite #B,Los Angeles,CA,90011
1743,4519 W Sunset Blvd,Los Angeles,CA,90027
1747,1970 Lansdowne Avenue,Los Angeles,CA,90032
1751,5287 W Sunset Blvd,Los Angeles,CA,90027
1761,11872 Wilshire Blvd,Los Angeles,CA,90025
1771,1305 N Catalina Street,Los Angeles,CA,90027
1774,12301 Wilshire Blvd #416,Los Angeles,CA,90025
1775,1325 Wellesley Avenue Unit #207,Los Angeles,CA,90025
1791,3736 Hawley Avenue,Los Angeles,CA,90032
1794,10474 Santa Monica Blvd #400,Los Angeles,CA,90025
1799,3225 Pueblo Avenue,Los Angeles,CA,90032
1806,415 E 32Nd Street Suite #B,Los Angeles,CA,90011
1818,1935 Hillhurst Avenue Unit #B,Los Angeles,CA,90027
1819,1930 N Hobart Blvd,Los Angeles,CA,90027
1820,5118 Harold Way Unit #7,Los Angeles,CA,90027
1824,3826 Los Feliz Blvd Unit #7,Los Angeles,CA,90027
1832,977 E 52Nd Street,Los Angeles,CA,90011
1837,3360 Rowena Avenue,Los Angeles,CA,90027
1838,2149 Manning Avenue,Los Angeles,CA,90025
1844,1283 E 58Th Street,Los Angeles,CA,90011
1847,3079 St George Street,Los Angeles,CA,90027
1848,1815 Armacost Avenue,Los Angeles,CA,90025
1854,4061 Avalon Blvd,Los Angeles,CA,90011
1862,1415 S Saltair Avenue #5,Los Angeles,CA,90025
1873,1810 N Kingsley Drive,Los Angeles,CA,90027
1879,12400 Wilshire Blvd Unit #1120,Los Angeles,CA,90025
1880,5287 W Sunset Blvd,Los Angeles,CA,90027
1882,11022 Santa Monica Blvd #310,Los Angeles,CA,90025
1884,11645 Wilshire Blvd Suite #605,Los Angeles,CA,90025
1892,11970 Wilshire Blvd,Los Angeles,CA,90025
1897,1344 N Hobart Blvd Unit #127,Los Angeles,CA,90027
1899,1917 Palmerston Place #105,Los Angeles,CA,90027
1900,4611 Huntington Drive N,Los Angeles,CA,90032
1903,5131 Harold Way #4,Los Angeles,CA,90027
1905,492 E 42Nd Place,Los Angeles,CA,90011
1909,1931 Overland Avenue #203,Los Angeles,CA,90025
1921,4051 Avalon Blvd,Los Angeles,CA,90011
1922,5301 W Sunset Blvd Suite #6,Los Angeles,CA,90027
1938,3826 Lomitas Drive,Los Angeles,CA,90032
1942,1202 E 45Th Street,Los Angeles,CA,90011
1946,4003 Sunset Drive Unit #5,Los Angeles,CA,90027
1954,1947 Adair Street,Los Angeles,CA,90011
1955,3836 Lomitas Drive,Los Angeles,CA,90032
1962,4061 Avalon Blvd,Los Angeles,CA,90011
1966,1537 E Adams Blvd,Los Angeles,CA,90011
1967,1394 1/2 N Serrano Avenue,Los Angeles,CA,90027
1973,2835 Hyperion Avenue,Los Angeles,CA,90027
1977,1936 1/2 N Alexandria Avenue,Los Angeles,CA,90027
1980,4720 Los Feliz Blvd #9,Los Angeles,CA,90027
1982,1509 Talmadge Street,Los Angeles,CA,90027
1994,1540 Armacost Avenue Unit #104,Los Angeles,CA,90025
1997,1217 Amherst Avenue #8,Los Angeles,CA,90025
1999,12401 Wilshire Blvd #103,Los Angeles,CA,90025
2002,1478 E 21St Street,Los Angeles,CA,90011
2006,10436 Santa Monica Blvd Suite #400,Los Angeles,CA,90025
2009,1460 E 25Th Street,Los Angeles,CA,90011
2011,12121 Wilshire Blvd #525,Los Angeles,CA,90025
2012,2506 S San Pedro Street,Los Angeles,CA,90011
2018,4520 W Sunset Blvd,Los Angeles,CA,90027
2021,307 E Jefferson Blvd Space #111/454,Los Angeles,CA,90011
2025,1519 Stoner Avenue #8,Los Angeles,CA,90025
2027,10436 Santa Monica Blvd Stop #400,Los Angeles,CA,90025
2030,4206 Los Feliz Blvd #3,Los Angeles,CA,90027
2042,10635 Santa Monica Blvd #200,Los Angeles,CA,90025
2046,10787 Missouri Avenue #304,Los Angeles,CA,90025
2051,4618 Fern Place,Los Angeles,CA,90032
2052,12400 Wilshire Blvd Suite #1120,Los Angeles,CA,90025
2057,429 E 20Th Street,Los Angeles,CA,90011
2065,12301 Wilshire Blvd Suite #650,Los Angeles,CA,90025
2071,1311 Bates Avenue,Los Angeles,CA,90027
2074,10436 Santa Monica Blvd Suite #400,Los Angeles,CA,90025
2079,11040 Santa Monica Blvd Suite #404,Los Angeles,CA,90025
2084,221 E 52Nd Street,Los Angeles,CA,90011
2090,12021 Wilshire Blvd #424,Los Angeles,CA,90025
2095,2645 N Vermont Avenue,Los Angeles,CA,90027
2097,3670 Amesbury Road,Los Angeles,CA,90027
2102,12304 Santa Monica Blvd Suite #209,Los Angeles,CA,90025
2103,10436 Santa Monica Blvd Unit #400,Los Angeles,CA,90025
2106,12400 Wilshire Blvd Suite #700,Los Angeles,CA,90025
2107,10560 Santa Monica Blvd #103,Los Angeles,CA,90025
2111,10350 Santa Monica Blvd Suite #205,Los Angeles,CA,90025
2115,11970 Wilshire Blvd,Los Angeles,CA,90025
2116,5011 Hollywood Blvd,Los Angeles,CA,90027
2119,12340 Santa Monica Blvd Suite #301,Los Angeles,CA,90025
2125,11661 Santa Monica Blvd,Los Angeles,CA,90025
2127,936 E 31St Street,Los Angeles,CA,90011
2131,1302 E Slauson Avenue,Los Angeles,CA,90011
2138,2038 Armacost Avenue Floor #1,Los Angeles,CA,90025
2140,12424 Wilshire Blvd #710,Los Angeles,CA,90025
2143,11601 Wilshire Blvd Suite #2150,Los Angeles,CA,90025
2148,3815 Tracy Street,Los Angeles,CA,90027
2159,11917 Wilshire Blvd,Los Angeles,CA,90025
2161,1920 Hillhurst Avenue Unit #103,Los Angeles,CA,90027
2162,4715 Avalon Blvd,Los Angeles,CA,90011
2170,11901 Santa Monica Blvd ##554,Los Angeles,CA,90025
2173,11766 Wilshire Blvd Suite #500,Los Angeles,CA,90025
2175,834 E Jefferson Blvd,Los Angeles,CA,90011
2177,11551 Santa Monica Blvd Apt #206,Los Angeles,CA,90025
2188,4507 Valley Blvd #203,Los Angeles,CA,90032
2190,10780 Santa Monica Blvd,Los Angeles,CA,90025
2196,127 E 36Th Street,Los Angeles,CA,90011
2206,11322 Mississippi Avenue,Los Angeles,CA,90025
2216,1641 1/2 N Kenmore Avenue,Los Angeles,CA,90027
2219,1570 E 23Rd Street,Los Angeles,CA,90011
2222,1935 Barry Avenue,Los Angeles,CA,90025
2233,3757 Monon Street,Los Angeles,CA,90027
2235,1245 Mcclellan Drive,Los Angeles,CA,90025
2244,5201 1/2 Hollywood Blvd,Los Angeles,CA,90027
2248,13517 Hillhurst Avenue,Los Angeles,CA,90027
2251,11261 Santa Monica Blvd,Los Angeles,CA,90025
2260,10357 Mississippi Avenue,Los Angeles,CA,90025
2264,5275 1/2 De Longpre Avenue,Los Angeles,CA,90027
2272,12400 Wilshire Blvd Suite #1120,Los Angeles,CA,90025
2274,11628 Santa Monica Blvd #203,Los Angeles,CA,90025
2280,4924 Hollywood Blvd,Los Angeles,CA,90027
2283,11111 Santa Monica Blvd Suite #1800,Los Angeles,CA,90025
2289,1930 Malcolm Avenue #101,Los Angeles,CA,90025
2303,3100 N Eastern Avenue,Los Angeles,CA,90032
2308,1610 E Vernon Avenue,Los Angeles,CA,90011
2313,4800 Valley Blvd,Los Angeles,CA,90032
2320,4648 Gainsborough Avenue,Los Angeles,CA,90027
2325,11901 Santa Monica Blvd Suite #210,Los Angeles,CA,90025
2327,4321 Los Feliz Blvd Suite #303,Los Angeles,CA,90027
2331,1334 N New Hampshire Avenue,Los Angeles,CA,90027
2333,4953 Cromwell Avenue,Los Angeles,CA,90027
2339,1990 S Bundy Drive #200,Los Angeles,CA,90025
2340,786 E 43Rd Place,Los Angeles,CA,90011
2344,1195 E 53Rd Street,Los Angeles,CA,90011
2347,1934 Palmerston Place #7,Los Angeles,CA,90027
2349,1301 N Mariposa Avenue,Los Angeles,CA,90027
2361,2102 N Vermont Avenue #2,Los Angeles,CA,90027
2362,3630 S San Pedro Street,Los Angeles,CA,90011
2364,2000 Sawtelle Blvd,Los Angeles,CA,90025
2365,5000 W Sunset Blvd Suite #7A,Los Angeles,CA,90027
2372,1730 N Edgemont Street Apt #306,Los Angeles,CA,90027
2380,11620 Ohio Avenue #1,Los Angeles,CA,90025
2385,3850 Tracy Street,Los Angeles,CA,90027
2387,1671 E 23Rd Street,Los Angeles,CA,90011
2390,2515 N Catalina Street,Los Angeles,CA,90027
2392,12222 Wilshire Blvd Unit #312,Los Angeles,CA,90025
2394,1954 Rodney Drive,Los Angeles,CA,90027
2399,11602 Santa Monica Blvd,Los Angeles,CA,90025
2400,5427 S Central Avenue,Los Angeles,CA,90011
2401,10635 Santa Monica Blvd Suite #240,Los Angeles,CA,90025
2404,10350 Santa Monica Blvd Suite #160,Los Angeles,CA,90025
2407,1902 Hyperion Avenue,Los Angeles,CA,90027
2413,1929 Hooper Avenue,Los Angeles,CA,90011
2423,12100 Wilshire Blvd Suite #300,Los Angeles,CA,90025
2431,1819 Camden Avenue #1,Los Angeles,CA,90025
2434,4015 Wall Street #7,Los Angeles,CA,90011
2437,1738 Barry Avenue #2,Los Angeles,CA,90025
2441,4411 Los Feliz Blvd #1002,Los Angeles,CA,90027
2449,151 E 55Th Street,Los Angeles,CA,90011
2451,11766 Wilshire Blvd Floor #9Th,Los Angeles,CA,90025
2452,2100 Sawtelle Blvd #103,Los Angeles,CA,90025
2458,1302 Manzanita Street,Los Angeles,CA,90027
2463,4705 Butterfly Lane,Los Angeles,CA,90032
2465,2090 Westwood Blvd,Los Angeles,CA,90025
2466,1442 Brockton Avenue #3,Los Angeles,CA,90025
2469,1640 N Hobart Blvd Apt #20,Los Angeles,CA,90027
2474,1539 N Alexandria Avenue #304,Los Angeles,CA,90027
2476,822 E 31St Street,Los Angeles,CA,90011
2478,4470 W Sunset Blvd Unit #90182,Los Angeles,CA,90027
2482,1312 S Centinela Avenue Apt #103,Los Angeles,CA,90025
2489,1935 Hillhurst Avenue Suite #B,Los Angeles,CA,90027
2496,11964 Wilshire Blvd,Los Angeles,CA,90025
2498,317 3/4 E 24Th Street,Los Angeles,CA,90011
2500,1920 Hillhurst Avenue Unit #1654,Los Angeles,CA,90027
2501,12121 Wilshire Blvd Suite #600,Los Angeles,CA,90025
2504,11901 Santa Monica Blvd #111,Los Angeles,CA,90025
2506,1605 Winona Blvd Apt #201,Los Angeles,CA,90027
2507,11728 Wilshire Blvd Apt #B404,Los Angeles,CA,90025
2514,2116 Kerwood Avenue,Los Angeles,CA,90025
2521,2705 S San Pedro Street,Los Angeles,CA,90011
2529,876 E 54Th Street,Los Angeles,CA,90011
2533,4854 Huntington Drive S Suite #S,Los Angeles,CA,90032
2543,270 E Martin Luther King Jr Blvd,Los Angeles,CA,90011
2548,1317 N Catalina Street,Los Angeles,CA,90027
2550,1934 N Normandie Avenue,Los Angeles,CA,90027
2551,12100 Wilshire Blvd Suite #1035,Los Angeles,CA,90025
2566,1749 N Serrano Avenue #206,Los Angeles,CA,90027
2569,1525 E 25Th Street,Los Angeles,CA,90011
2571,11565 Ohio Avenue #2,Los Angeles,CA,90025
2574,3720 Avalon Blvd #1,Los Angeles,CA,90011
2577,4437 Russell Avenue #4,Los Angeles,CA,90027
2581,10350 Santa Monica Blvd Suite #310,Los Angeles,CA,90025
2589,172 1/2 E 36Th Place,Los Angeles,CA,90011
2603,10860 La Grange Avenue,Los Angeles,CA,90025
2615,1444 S Saltair Avenue #305,Los Angeles,CA,90025
2632,1975 De Mille Drive,Los Angeles,CA,90027
2633,12425 Texas Avenue #7,Los Angeles,CA,90025
2634,1318 N Alexandria Avenue,Los Angeles,CA,90027
2635,11601 Wilshire Blvd Floor #5Th,Los Angeles,CA,90025
2640,1129 E 52Nd Street Unit #2,Los Angeles,CA,90011
2641,4473 W Sunset Blvd,Los Angeles,CA,90027
2643,3359 Rowena Avenue #10,Los Angeles,CA,90027
2646,2029 Butler Avenue,Los Angeles,CA,90025
2651,11111 Santa Monica Blvd Suite #1070,Los Angeles,CA,90025
2659,11275 Missouri Avenue,Los Angeles,CA,90025
2661,11777 Mississippi Avenue,Los Angeles,CA,90025
2663,11075 Santa Monica Blvd Suite #150,Los Angeles,CA,90025
2664,1818 Camden Avenue,Los Angeles,CA,90025
2672,1810 Hillhurst Avenue,Los Angeles,CA,90027
2674,1957 Holmby Avenue,Los Angeles,CA,90025
2682,12021 Wilshire Blvd Suite #559,Los Angeles,CA,90025
2683,5122 1/2 Huntington Drive S,Los Angeles,CA,90032
2684,130 E 32Nd Street,Los Angeles,CA,90011
2688,1637 S Westgate Avenue,Los Angeles,CA,90025
2690,11819 Wilshire Blvd Suite #101,Los Angeles,CA,90025
2699,1909 N New Hampshire Avenue,Los Angeles,CA,90027
2700,10351 Santa Monica Blvd Suite #101,Los Angeles,CA,90025
2706,11150 Santa Monica Blvd Floor #825,Los Angeles,CA,90025
2710,1614 N Western Avenue,Los Angeles,CA,90027
2712,12016 Wilshire Blvd #6,Los Angeles,CA,90025
2715,2146 Lyric Avenue,Los Angeles,CA,90027
2718,12036 Wilshire Blvd,Los Angeles,CA,90025
2719,11111 Santa Monica Blvd,Los Angeles,CA,90025
2722,1030 E 49Th Street,Los Angeles,CA,90011
2726,4458 Dundee Drive,Los Angeles,CA,90027
2740,1911 Camden Avenue,Los Angeles,CA,90025
2744,12304 Santa Monica Blvd Suite #327,Los Angeles,CA,90025
2748,12111 Santa Monica Blvd,Los Angeles,CA,90025
2749,4010 Los Feliz Blvd,Los Angeles,CA,90027
2765,1829 Corinth Avenue Apt #1,Los Angeles,CA,90025
2770,5819 Compton Avenue Unit #D,Los Angeles,CA,90011
2771,3725 Locke Avenue,Los Angeles,CA,90032
2776,5119 Avalon Blvd,Los Angeles,CA,90011
2777,4980 Hollywood Blvd,Los Angeles,CA,90027
2782,4604 Franklin Avenue,Los Angeles,CA,90027
2786,1897 Lansdowne Avenue,Los Angeles,CA,90032
2787,10635 Santa Monica Blvd Suite #200,Los Angeles,CA,90025
2797,11858 La Grange Avenue Floor #2Nd,Los Angeles,CA,90025
2800,4470 W Sunset Blvd Suite #107,Los Angeles,CA,90027
2802,11980 Nebraska Avenue Suite #10,Los Angeles,CA,90025
2805,5005 Axtell Street #9,Los Angeles,CA,90032
2807,1634 Armacost Avenue #9,Los Angeles,CA,90025
2819,5142 1/2 De Longpre Avenue,Los Angeles,CA,90027
2825,12100 Wilshire Blvd #1040,Los Angeles,CA,90025
2828,10436 Santa Monica Blvd Suite #3010,Los Angeles,CA,90025
2829,2900 S Central Avenue,Los Angeles,CA,90011
2832,270 E Martin Luther King Jr Blvd,Los Angeles,CA,90011
2839,2006 N Kenmore Avenue,Los Angeles,CA,90027
2840,2464 Glendower Place,Los Angeles,CA,90027
2841,12100 Wilshire Blvd #1750,Los Angeles,CA,90025
2845,12300 Wilshire Blvd Unit #330,Los Angeles,CA,90025
2850,12335 Santa Monica Blvd,Los Angeles,CA,90025
2855,4470 W Sunset Blvd Suite #107-94364,Los Angeles,CA,90027
2860,11022 Santa Monica Blvd #370,Los Angeles,CA,90025
2871,12400 Wilshire Blvd Suite #1275,Los Angeles,CA,90025
2874,12304 Santa Monica Blvd Unit #101,Los Angeles,CA,90025
2876,1320 S Carmelina Avenue Apt #5,Los Angeles,CA,90025
2877,1508 S Centinela Avenue Apt #8,Los Angeles,CA,90025
2883,12401 Wilshire Blvd Suite #200,Los Angeles,CA,90025
2884,2030 Dracena Drive Apt #5,Los Angeles,CA,90027
2885,1310 Wellesley Avenue #205,Los Angeles,CA,90025
2894,11620 Wilshire Blvd Suite #900,Los Angeles,CA,90025
2902,1317 N Kenmore Avenue Apt #B,Los Angeles,CA,90027
2916,5123 W Sunset Blvd,Los Angeles,CA,90027
2919,3755 Locke Avenue,Los Angeles,CA,90032
2921,11901 Santa Monica Blvd Suite #688,Los Angeles,CA,90025
2922,1929 Beloit Avenue Apt #319,Los Angeles,CA,90025
2924,1750 N Western Avenue Arcade #103,Los Angeles,CA,90027
2926,1918 N Normandie Avenue,Los Angeles,CA,90027
2928,1606 E 42Nd Street,Los Angeles,CA,90011
2929,1956 N Commonwealth Avenue #1,Los Angeles,CA,90027
2930,445 E 28Th Street,Los Angeles,CA,90011
2945,12304 Santa Monica Blvd Suite #106,Los Angeles,CA,90025
2960,3400 Ben Lomond Place,Los Angeles,CA,90027
2961,1258 Brockton Avenue Unit #101,Los Angeles,CA,90025
2962,12121 Wilshire Blvd Suite #525,Los Angeles,CA,90025
2963,2461 Lyric Avenue,Los Angeles,CA,90027
2978,2041 N Commonwealth Avenue Apt #311,Los Angeles,CA,90027
2995,3000 S Central Avenue,Los Angeles,CA,90011
3000,4455 Los Feliz Blvd Unit #106,Los Angeles,CA,90027
3001,5222 Ascot Avenue,Los Angeles,CA,90011
3004,1820 S Beverly Glen Blvd Unit #305,Los Angeles,CA,90025
3013,1936 Mayview Drive,Los Angeles,CA,90027
3017,3263 Amethyst Street,Los Angeles,CA,90032
3020,1023 E 28Th Street #3,Los Angeles,CA,90011
3023,1912 Stoner Avenue,Los Angeles,CA,90025
3031,426 1/2 E 29Th Street,Los Angeles,CA,90011
3033,5118 Avalon Blvd,Los Angeles,CA,90011
3036,1532 S Bundy Drive Unit #B,Los Angeles,CA,90025
3042,2508 Hyperion Avenue,Los Angeles,CA,90027
3047,3922 1/2 Sunset Drive,Los Angeles,CA,90027
3052,710 E 55Th Street,Los Angeles,CA,90011
3053,11755 Wilshire Blvd Suite #1250,Los Angeles,CA,90025
3071,12100 Wilshire Blvd Suite #510,Los Angeles,CA,90025
3073,1855 Comstock Avenue,Los Angeles,CA,90025
3076,1549 Armacost Avenue Unit #2,Los Angeles,CA,90025
3079,3822 Stockbridge Avenue,Los Angeles,CA,90032
3084,4607 Wadsworth Avenue,Los Angeles,CA,90011
3085,11620 Wilshire Blvd Suite #580,Los Angeles,CA,90025
3090,2140 Westwood Blvd Suite #210,Los Angeles,CA,90025
3095,12100 Wilshire Blvd Suite #510,Los Angeles,CA,90025
3096,4680 Druid Street,Los Angeles,CA,90032
3097,5045 Navarro Street,Los Angeles,CA,90032
3099,11150 Santa Monica Blvd Suite #600,Los Angeles,CA,90025
3105,4801 Hooper Avenue,Los Angeles,CA,90011
3107,4700 Crystal Springs Drive,Los Angeles,CA,90027
3112,4711 Ambrose Avenue #303,Los Angeles,CA,90027
3113,1824 Hillhurst Avenue,Los Angeles,CA,90027
3114,4108 Supreme Court,Los Angeles,CA,90032
3117,11706 Ohio Avenue,Los Angeles,CA,90025
3120,1619 1/2 Hillhurst Avenue,Los Angeles,CA,90027
3121,5419 Hollywood Blvd #C715,Los Angeles,CA,90027
3123,4208 Clayton Avenue,Los Angeles,CA,90027
3135,1640 S Sepulveda Blvd Suite #425,Los Angeles,CA,90025
3137,1910 Manning Avenue Unit #1,Los Angeles,CA,90025
3139,1526 1/4 E 52Nd Street,Los Angeles,CA,90011
3141,11901 Santa Monica Blvd #491,Los Angeles,CA,90025
3143,3914 Van Horne Avenue,Los Angeles,CA,90032
3150,1920 N Ditman Avenue,Los Angeles,CA,90032
3178,12100 Wilshire Blvd Floor #8,Los Angeles,CA,90025
3184,1936 Myra Avenue,Los Angeles,CA,90027
3198,4470 W Sunset Blvd Unit #264,Los Angeles,CA,90027
3200,11620 Wilshire Blvd Floor #9,Los Angeles,CA,90025
3206,5426 Harold Way Unit #204,Los Angeles,CA,90027
3207,4364 S Central Avenue,Los Angeles,CA,90011
3212,5419 Hollywood Blvd Suite #C-264,Los Angeles,CA,90027
3217,5264 Los Encantos Way,Los Angeles,CA,90027
3218,2027 Butler Avenue,Los Angeles,CA,90025
3227,4418 Cromwell Avenue,Los Angeles,CA,90027
3242,11600 Wilshire Blvd #300,Los Angeles,CA,90025
3243,801 E Slauson Avenue,Los Angeles,CA,90011
3247,4019 Clayton Avenue,Los Angeles,CA,90027
3251,3814 Sunset Drive,Los Angeles,CA,90027
3256,120 E 32Nd Street,Los Angeles,CA,90011
3257,11645 Wilshire Blvd #600,Los Angeles,CA,90025
3260,2047 Sawtelle Blvd,Los Angeles,CA,90025
3276,1920 N Normandie Avenue,Los Angeles,CA,90027
3284,1919 Vineburn Avenue #20,Los Angeles,CA,90032
3292,1950 Pelham Avenue Unit #17,Los Angeles,CA,90025
3308,1640 S Sepulveda Blvd Suite #425,Los Angeles,CA,90025
3312,1545 S Bentley Avenue Unit #301,Los Angeles,CA,90025
3319,3716 Rosemead Avenue,Los Angeles,CA,90032
3324,1410 Wellesley Avenue #101,Los Angeles,CA,90025
3325,11100 Santa Monica Blvd Suite #1910,Los Angeles,CA,90025
3331,4937 Collis Avenue,Los Angeles,CA,90032
3332,11600 Wilshire Blvd Suite #200,Los Angeles,CA,90025
3333,4940 La Calandria Way,Los Angeles,CA,90032
3338,1834 N Harvard Blvd #24,Los Angeles,CA,90027
3342,1743 S Westgate Avenue,Los Angeles,CA,90025
3347,11755 Wilshire Blvd,Los Angeles,CA,90025
3360,2355 Lyric Avenue Floor #3,Los Angeles,CA,90027
3371,1600 N Western Avenue Unit #214,Los Angeles,CA,90027
3373,3949 Los Feliz Blvd Suite #318,Los Angeles,CA,90027
3380,12021 Wilshire Blvd #215,Los Angeles,CA,90025
3388,5240 Ithaca Avenue,Los Angeles,CA,90032
3391,11650 Ohio Avenue #10,Los Angeles,CA,90025
3405,4443 1/2 Camero Avenue,Los Angeles,CA,90027
3407,540 E Jefferson Blvd,Los Angeles,CA,90011
3411,3930 Los Feliz Blvd Unit #217,Los Angeles,CA,90027
3412,1776 N Harvard Blvd #9,Los Angeles,CA,90027
3419,829 E 31St Street,Los Angeles,CA,90011
3424,4020 Portola Avenue,Los Angeles,CA,90032
3428,10700 Santa Monica Blvd #305,Los Angeles,CA,90025
3431,1637 1/2 Lyman Place,Los Angeles,CA,90027
3434,12121 Wilshire Blvd Suite #600,Los Angeles,CA,90025
3442,2716 N Vermont Avenue Suite #9,Los Angeles,CA,90027
3444,4226 Abner Street,Los Angeles,CA,90032
3445,1905 N Alexandria Avenue,Los Angeles,CA,90027
3449,1640 S Sepulveda Blvd Suite #425,Los Angeles,CA,90025
3451,3702 Arbolada Road,Los Angeles,CA,90027
3453,151 E Jefferson Blvd,Los Angeles,CA,90011
3459,1285 Barry Avenue #203,Los Angeles,CA,90025
3461,11261 Santa Monica Blvd,Los Angeles,CA,90025
3464,10835 Santa Monica Blvd #207,Los Angeles,CA,90025
3476,5106 Hollywood Blvd #102,Los Angeles,CA,90027
3477,1818 Federal Avenue #3,Los Angeles,CA,90025
3488,2001 S Barrington Avenue Suite #204,Los Angeles,CA,90025
3489,10780 Santa Monica Blvd Suite #140,Los Angeles,CA,90025
3491,10508 Santa Monica Blvd,Los Angeles,CA,90025
3494,186 1/2 E 48Th Street,Los Angeles,CA,90011
3501,12400 Wilshire Blvd,Los Angeles,CA,90025
3509,11901 Santa Monica Blvd Suite #468,Los Angeles,CA,90025
3510,813 E Slauson Avenue,Los Angeles,CA,90011
3513,4109 Clayton Avenue,Los Angeles,CA,90027
3514,946 E 55Th Street,Los Angeles,CA,90011
3523,11601 Wilshire Blvd Suite #470,Los Angeles,CA,90025
3525,4524 Avalon Blvd,Los Angeles,CA,90011
3533,1942 1/2 Holmby Avenue,Los Angeles,CA,90025
3540,11755 Wilshire Blvd Suite #1450,Los Angeles,CA,90025
3544,11925 Wilshire Blvd Unit #300,Los Angeles,CA,90025
3550,1851 Holmby Avenue Unit #101,Los Angeles,CA,90025
3552,1633 Brockton Avenue,Los Angeles,CA,90025
3564,5609 Mckinley Avenue,Los Angeles,CA,90011
3585,4015 S Central Avenue,Los Angeles,CA,90011
3586,11755 Wilshire Blvd,Los Angeles,CA,90025
3589,2106 Maple Avenue,Los Angeles,CA,90011
3595,4345 Woodlawn Avenue,Los Angeles,CA,90011
3597,1314 E Adams Blvd,Los Angeles,CA,90011
3602,1929 Hooper Avenue,Los Angeles,CA,90011
3604,11620 Wilshire Blvd Suite #100,Los Angeles,CA,90025
3617,4551 Russell Avenue,Los Angeles,CA,90027
3622,4977 Hollywood Blvd Unit #E,Los Angeles,CA,90027
3623,2009 N Vermont Avenue,Los Angeles,CA,90027
3625,2928 Budau Avenue,Los Angeles,CA,90032
3630,1540 Armacost Avenue #4,Los Angeles,CA,90025
3631,2034 Cotner Avenue Suite #100,Los Angeles,CA,90025
3637,2906 S San Pedro Street,Los Angeles,CA,90011
3639,1944 Glendon Avenue #101,Los Angeles,CA,90025
3652,3939 Prospect Avenue,Los Angeles,CA,90027
3660,1707 Wellesley Avenue,Los Angeles,CA,90025
3664,1402 N Kingsley Drive Unit #5,Los Angeles,CA,90027
3667,1819 Hollyvista Avenue,Los Angeles,CA,90027
3669,2030 Dracena Drive,Los Angeles,CA,90027
3671,10318 Dunkirk Avenue,Los Angeles,CA,90025
3672,282 E 46Th Street,Los Angeles,CA,90011
3676,2909 Ballard Street,Los Angeles,CA,90032
3678,2141 S Bentley Avenue Apt #103,Los Angeles,CA,90025
3679,1826 Overland Avenue Unit #8,Los Angeles,CA,90025
3681,5391 Somerset Street,Los Angeles,CA,90032
3682,3356 Bellota Way,Los Angeles,CA,90027
3685,625 E 49Th Street,Los Angeles,CA,90011
3686,1241 Amherst Avenue #8,Los Angeles,CA,90025
3690,4158 Avalon Blvd,Los Angeles,CA,90011
3691,5101 W Sunset Blvd,Los Angeles,CA,90027
3693,12410 Idaho Avenue,Los Angeles,CA,90025
3700,5111 Ascot Avenue,Los Angeles,CA,90011
3704,11860 Wilshire Blvd Suite #100,Los Angeles,CA,90025
3705,1630 N Edgemont Street #A2,Los Angeles,CA,90027
3706,12400 Wilshire Blvd Suite #995,Los Angeles,CA,90025
3709,10642 Santa Monica Blvd Unit #101,Los Angeles,CA,90025
3710,1714 Hillhurst Avenue,Los Angeles,CA,90027
3715,1812 Overland Avenue #204,Los Angeles,CA,90025
3720,1513 Wellesley Avenue,Los Angeles,CA,90025
3722,111 E 32Nd Street,Los Angeles,CA,90011
3728,1610 N Serrano Avenue,Los Angeles,CA,90027
3729,11925 Wilshire Blvd Suite #102,Los Angeles,CA,90025
3733,2106 Parnell Avenue,Los Angeles,CA,90025
3735,11620 Wilshire Blvd Suite #100,Los Angeles,CA,90025
3736,2275 Vandalia Avenue,Los Angeles,CA,90032
3738,1637 1/2 N Kenmore Avenue,Los Angeles,CA,90027
3741,266 E 47Th Place,Los Angeles,CA,90011
3743,1990 Westwood Blvd #250,Los Angeles,CA,90025
3749,1567 S Barrington Avenue #2,Los Angeles,CA,90025
3750,1760 Hillhurst Avenue,Los Angeles,CA,90027
3754,11953 Santa Monica Blvd,Los Angeles,CA,90025
3755,1411 Butler Avenue,Los Angeles,CA,90025
3756,1939 S San Pedro Street #2,Los Angeles,CA,90011
3757,2471 Claremont Avenue,Los Angeles,CA,90027
3761,5065 Hollywood Blvd Suite #205,Los Angeles,CA,90027
3762,5065 Hollywood Blvd Suite #204,Los Angeles,CA,90027
3763,1877 N Kingsley Drive,Los Angeles,CA,90027
3764,5057 Ambrose Avenue,Los Angeles,CA,90027
3765,11150 Santa Monica Blvd Floor #825,Los Angeles,CA,90025
3766,2104 Maple Avenue,Los Angeles,CA,90011
3771,125 E 29Th Street Unit #4,Los Angeles,CA,90011
3773,5509 Alhambra Avenue,Los Angeles,CA,90032
3777,2130 Sawtelle Blvd #207,Los Angeles,CA,90025
3784,2625 Claremont Avenue,Los Angeles,CA,90027
3785,1956 N Alexandria Avenue Apt #2,Los Angeles,CA,90027
3786,1241 Amherst Avenue Unit #8,Los Angeles,CA,90025
3790,1511 E 56Th Street,Los Angeles,CA,90011
3792,10801 Santa Monica Blvd,Los Angeles,CA,90025
3794,2010 Fairburn Avenue,Los Angeles,CA,90025
3795,12100 Wilshire Blvd Suite #320,Los Angeles,CA,90025
3799,1733 Armacost Avenue Unit #2,Los Angeles,CA,90025
3800,4801 Hooper Avenue,Los Angeles,CA,90011
3802,11520 Wyoming Avenue,Los Angeles,CA,90025
3804,11045 Missouri Avenue #204,Los Angeles,CA,90025
3805,2720 Naomi Avenue #3,Los Angeles,CA,90011
3814,1844 S Bundy Drive,Los Angeles,CA,90025
3815,2920 Adkins Avenue,Los Angeles,CA,90032
3816,12400 Wilshire Blvd Suite #1275,Los Angeles,CA,90025
3823,11822 Iowa Avenue,Los Angeles,CA,90025
3824,1847 Winona Blvd #304,Los Angeles,CA,90027
3831,1446 Federal Avenue,Los Angeles,CA,90025
3832,1308 N Kingsley Drive,Los Angeles,CA,90027
3835,2022 N Commonwealth Avenue Unit #1,Los Angeles,CA,90027
3836,12041 Wilshire Blvd Suite #27,Los Angeles,CA,90025
3842,11620 Wilshire Blvd #1150,Los Angeles,CA,90025
3844,3400 Ben Lomond Place #216,Los Angeles,CA,90027
3850,1525 S Sepulveda Blvd Suite #D,Los Angeles,CA,90025
3853,2040 Sawtelle Blvd,Los Angeles,CA,90025
3854,1337 E 27Th Street,Los Angeles,CA,90011
3856,1722 N Alexandria Avenue,Los Angeles,CA,90027
3858,1885 Veteran Avenue #203,Los Angeles,CA,90025
3867,2001 S Barrington Avenue #112,Los Angeles,CA,90025
3870,4321 Finley Avenue,Los Angeles,CA,90027
3871,1628 S Westgate Avenue #209,Los Angeles,CA,90025
3873,11620 Wilshire Blvd Suite #105,Los Angeles,CA,90025
3877,5138 W Sunset Blvd,Los Angeles,CA,90027
3880,1935 N Oxford Avenue,Los Angeles,CA,90027
3887,1517 Corinth Avenue #2,Los Angeles,CA,90025
3890,4119 Camero Avenue,Los Angeles,CA,90027
3897,5123 S Central Avenue Unit #A,Los Angeles,CA,90011
3899,11902 Rochester Avenue,Los Angeles,CA,90025
3904,5261 Hollywood Blvd,Los Angeles,CA,90027
3909,807 E 24Th Street #4,Los Angeles,CA,90011
3918,2520 1/4 S Central Avenue,Los Angeles,CA,90011
3919,811 E 43Rd Place,Los Angeles,CA,90011
3920,12100 Wilshire Blvd Suite #320,Los Angeles,CA,90025
3922,1307 N Vermont Avenue #B,Los Angeles,CA,90027
3924,762 E Slauson Avenue Unit #1,Los Angeles,CA,90011
3925,2043 Kerwood Avenue,Los Angeles,CA,90025
3932,11903 Nebraska Avenue,Los Angeles,CA,90025
3938,5819 Ascot Avenue,Los Angeles,CA,90011
3941,3617 Monon Street,Los Angeles,CA,90027
3953,5320 1/2 Templeton Street,Los Angeles,CA,90032
3957,3517 S Central Avenue,Los Angeles,CA,90011
3959,11620 Wilshire Blvd Suite #105,Los Angeles,CA,90025
3964,12100 Wilshire Blvd Suite #320,Los Angeles,CA,90025
3973,5142 Hollywood Blvd,Los Angeles,CA,90027
3974,10460 Santa Monica Blvd,Los Angeles,CA,90025
3975,1317 N New Hampshire Avenue,Los Angeles,CA,90027
3985,1300 N Vermont Avenue Suite #601,Los Angeles,CA,90027
3990,1511 Pontius Avenue Unit #104,Los Angeles,CA,90025
3993,10327 Missouri Avenue #201,Los Angeles,CA,90025
4001,10715 Missouri Avenue #303,Los Angeles,CA,90025
4007,1700 Sawtelle Blvd Apt #301,Los Angeles,CA,90025
4011,2226 Lyric Avenue,Los Angeles,CA,90027
4012,1670 Hillhurst Avenue Suite #204,Los Angeles,CA,90027
4018,12012 Wilshire Blvd Suite #106,Los Angeles,CA,90025
4034,4071 Avalon Blvd,Los Angeles,CA,90011
4038,214 E 51St Street,Los Angeles,CA,90011
4040,1635 Colby Avenue #3,Los Angeles,CA,90025
4062,2001 S Barrington Avenue #220,Los Angeles,CA,90025
4072,639 E 38Th Street,Los Angeles,CA,90011
4076,502 E 23Rd Street,Los Angeles,CA,90011
4083,1624 Stoner Avenue #6,Los Angeles,CA,90025
4090,2001 S Barrington Avenue Suite #203,Los Angeles,CA,90025
4095,1949 Hillhurst Avenue,Los Angeles,CA,90027
4099,4361 Valley Blvd Unit #12,Los Angeles,CA,90032
4110,1539 N Alexandria Avenue Unit #307,Los Angeles,CA,90027
4114,4426 Kingswell Avenue Unit #3,Los Angeles,CA,90027
4120,11601 Wilshire Blvd Suite #600,Los Angeles,CA,90025
4126,1915 N Berendo Street,Los Angeles,CA,90027
4129,1906 Malcolm Avenue #4,Los Angeles,CA,90025
4131,4879 Ambrose Avenue,Los Angeles,CA,90027
4132,11601 Wilshire Blvd Suite #1925,Los Angeles,CA,90025
4134,4510 Avocado Street,Los Angeles,CA,90027
4136,1558 Rosalia Road,Los Angeles,CA,90027
4140,12423 Wilshire Blvd #B,Los Angeles,CA,90025
4158,4569 Valley Blvd,Los Angeles,CA,90032
4168,4634 Hollywood Blvd,Los Angeles,CA,90027
4169,5333 Zoo Drive,Los Angeles,CA,90027
4170,4512 Huntington Drive N,Los Angeles,CA,90032
4172,4420 Kingswell Avenue,Los Angeles,CA,90027
4176,1600 S Westgate Avenue #508,Los Angeles,CA,90025
4177,955 E 31St Street,Los Angeles,CA,90011
4182,11734 Wilshire Blvd #C312,Los Angeles,CA,90025
4183,12400 Wilshire Blvd Suite #1455,Los Angeles,CA,90025
4188,5071 Kimball Street,Los Angeles,CA,90032
4191,1662 Hillhurst Avenue Unit #A,Los Angeles,CA,90027
4196,10585 Santa Monica Blvd Suite #P1,Los Angeles,CA,90025
4198,11050 Santa Monica Blvd Floor #2Nd,Los Angeles,CA,90025
4210,3340 Waverly Drive,Los Angeles,CA,90027
4211,4470 W Sunset Blvd Suite #107,Los Angeles,CA,90027
4213,1011 E Adams Blvd #504,Los Angeles,CA,90011
4219,3400 Ben Lomond Place #211,Los Angeles,CA,90027
4235,12418 Santa Monica Blvd,Los Angeles,CA,90025
4237,238 E 43Rd Place,Los Angeles,CA,90011
4240,11601 Wilshire Blvd,Los Angeles,CA,90025
4241,11858 La Grange Avenue Floor #2,Los Angeles,CA,90025
4244,11601 Wilshire Blvd Suite #2300,Los Angeles,CA,90025
4248,2325 S Central Avenue,Los Angeles,CA,90011
4263,901 E 31St Street Suite #200,Los Angeles,CA,90011
4265,2137 Kerwood Avenue,Los Angeles,CA,90025
4266,1550 N Harvard Blvd #12,Los Angeles,CA,90027
4273,1623 N Mariposa Avenue,Los Angeles,CA,90027
4282,11858 La Grange Avenue Floor #2,Los Angeles,CA,90025
4288,11050 Santa Monica Blvd Floor #3,Los Angeles,CA,90025
4289,1546 S Bundy Drive,Los Angeles,CA,90025
4298,11620 Wilshire Blvd Suite #1150,Los Angeles,CA,90025
4299,4685 Hollywood Blvd,Los Angeles,CA,90027
4306,1932 Hillhurst Avenue,Los Angeles,CA,90027
4310,4651 Melbourne Avenue,Los Angeles,CA,90027
4331,3324 S Central Avenue,Los Angeles,CA,90011
4332,4122 S Central Avenue,Los Angeles,CA,90011
4336,11040 Santa Monica Blvd #220,Los Angeles,CA,90025
4337,4470 Sunset Drive #310,Los Angeles,CA,90027
4340,11870 Santa Monica Blvd Unit #207,Los Angeles,CA,90025
4342,11645 Wilshire Blvd #600,Los Angeles,CA,90025
4350,4470 W Sunset Blvd #471,Los Angeles,CA,90027
4354,1242 S Barrington Avenue #103,Los Angeles,CA,90025
4358,1845 Beloit Avenue Apt #201,Los Angeles,CA,90025
4359,3340 Waverly Drive,Los Angeles,CA,90027
4370,11755 Wilshire Blvd Suite #1800,Los Angeles,CA,90025
4376,1617 E Adams Blvd,Los Angeles,CA,90011
4377,5048 Huntington Drive S,Los Angeles,CA,90032
4383,1920 Hillhurst Avenue #1187,Los Angeles,CA,90027
4384,1504 E Martin Luther King Jr Blvd,Los Angeles,CA,90011
4385,2421 Maple Avenue,Los Angeles,CA,90011
4388,1807 Corinth Avenue Unit #6,Los Angeles,CA,90025
4390,4549 1/2 Kingswell Avenue,Los Angeles,CA,90027
4394,5065 Hollywood Blvd Suite #106,Los Angeles,CA,90027
4403,1727 Winona Blvd,Los Angeles,CA,90027
4412,11847 Wilshire Blvd,Los Angeles,CA,90025
4413,4346 Melbourne Avenue,Los Angeles,CA,90027
4415,1000 E 25Th Street,Los Angeles,CA,90011
4419,11828 La Grange Avenue #200,Los Angeles,CA,90025
4425,11901 Santa Monica Blvd #313,Los Angeles,CA,90025
4427,2929 St George Street #1,Los Angeles,CA,90027
4428,1045 E 54Th Street,Los Angeles,CA,90011
4441,1925 N Catalina Street,Los Angeles,CA,90027
4444,11925 Wilshire Blvd Suite #101,Los Angeles,CA,90025
4452,1971 N Kenmore Avenue,Los Angeles,CA,90027
4454,10436 Santa Monica Blvd Suite #3010,Los Angeles,CA,90025
4458,5226 W Sunset Blvd,Los Angeles,CA,90027
4460,5525 Morgan Avenue,Los Angeles,CA,90011
4464,3710 Los Feliz Blvd Unit #27,Los Angeles,CA,90027
4465,5142 Los Bonitos Way,Los Angeles,CA,90027
4466,3906 Fernwood Avenue #314,Los Angeles,CA,90027
4472,11740 Wilshire Blvd #A708,Los Angeles,CA,90025
4483,11050 Santa Monica Blvd Floor #3Rd,Los Angeles,CA,90025
4489,12424 Wilshire Blvd Suite #1055,Los Angeles,CA,90025
4494,2100 Cyril Avenue,Los Angeles,CA,90032
4499,5329 1/4 Loma Linda Avenue,Los Angeles,CA,90027
4505,4411 Los Feliz Blvd Unit #607,Los Angeles,CA,90027
4506,2501 S Central Avenue,Los Angeles,CA,90011
4507,4736 Hollywood Blvd,Los Angeles,CA,90027
4511,1840 Veteran Avenue #304,Los Angeles,CA,90025
4512,4717 Druid Street,Los Angeles,CA,90032
4516,5512 S Central Avenue,Los Angeles,CA,90011
4521,162 E 56Th Street,Los Angeles,CA,90011
4526,11850 Nebraska Avenue,Los Angeles,CA,90025
4529,3011 S San Pedro Street,Los Angeles,CA,90011
4532,2226 Lyric Avenue,Los Angeles,CA,90027
4533,1640 S Sepulveda Blvd Suite #300,Los Angeles,CA,90025
4535,4573 Valley Blvd,Los Angeles,CA,90032
4540,11041 Santa Monica Blvd #527,Los Angeles,CA,90025
4541,4637 Russell Avenue #2,Los Angeles,CA,90027
4542,1977 De Mille Drive,Los Angeles,CA,90027
4545,1990 S Bundy Drive Suite #420,Los Angeles,CA,90025
4546,11925 Wilshire Blvd Suite #101,Los Angeles,CA,90025
4551,1216 S Saltair Avenue,Los Angeles,CA,90025
4552,1023 E 28Th Street,Los Angeles,CA,90011
4554,261 E Vernon Avenue,Los Angeles,CA,90011
4555,1672 N Western Avenue #318,Los Angeles,CA,90027
4559,1910 Westwood Blvd,Los Angeles,CA,90025
4563,12340 Santa Monica Blvd #136,Los Angeles,CA,90025
4565,219 E Martin Luther King Jr Blvd,Los Angeles,CA,90011
4576,515 Park Front Walks,Los Angeles,CA,90011
4578,11075 Santa Monica Blvd #125,Los Angeles,CA,90025
4581,11111 Santa Monica Blvd Suite #800,Los Angeles,CA,90025
4585,1862 N Edgemont Street,Los Angeles,CA,90027
4586,1806 Hillhurst Avenue,Los Angeles,CA,90027
4591,1369 E 50Th Street,Los Angeles,CA,90011
4596,1142 E 32Nd Street,Los Angeles,CA,90011
4598,12301 Wilshire Blvd Suite #418,Los Angeles,CA,90025
4599,2180 Westwood Blvd Suite #2A,Los Angeles,CA,90025
4600,1777 N Vermont Avenue #415,Los Angeles,CA,90027
4604,1420 Manzanita Street,Los Angeles,CA,90027
4605,2042 S Sepulveda Blvd,Los Angeles,CA,90025
4611,11600 Wilshire Blvd #512,Los Angeles,CA,90025
4614,1400 E 41St Street,Los Angeles,CA,90011
4618,11050 Santa Monica Blvd Floor #3Rd,Los Angeles,CA,90025
4622,4573 Valley Blvd,Los Angeles,CA,90032
4623,2331 Naomi Avenue,Los Angeles,CA,90011
4627,1849 Hollyvista Avenue,Los Angeles,CA,90027
4633,5612 Fortuna Street,Los Angeles,CA,90011
4636,5504 1/2 S Central Avenue,Los Angeles,CA,90011
4639,1936 Pelham Avenue #102,Los Angeles,CA,90025
4643,11419 Santa Monica Blvd Unit #K24,Los Angeles,CA,90025
4644,12100 Wilshire Blvd #200,Los Angeles,CA,90025
4645,11935 Santa Monica Blvd,Los Angeles,CA,90025
4646,5612 Fortuna Street,Los Angeles,CA,90011
4649,801 E Slauson Avenue,Los Angeles,CA,90011
4650,1300 N Vermont Avenue Suite #100,Los Angeles,CA,90027
4653,1511 Pontius Avenue Suite #104,Los Angeles,CA,90025
4654,1771 N Vermont Avenue Unit #206,Los Angeles,CA,90027
4656,11150 Santa Monica Blvd Suite #825,Los Angeles,CA,90025
4662,11050 Santa Monica Blvd Floor #3Rd,Los Angeles,CA,90025
4664,3437 Amethyst Street,Los Angeles,CA,90032
4670,1750 N Harvard Blvd Unit #112,Los Angeles,CA,90027
4674,1459 E 21St Street,Los Angeles,CA,90011
4677,5224 W Sunset Blvd,Los Angeles,CA,90027
4679,1252 Granville Avenue,Los Angeles,CA,90025
4681,1907 Hillhurst Avenue,Los Angeles,CA,90027
4682,5326 Avalon Blvd,Los Angeles,CA,90011
4683,12304 Santa Monica Blvd Suite #125A,Los Angeles,CA,90025
4684,1819 Kelton Avenue Unit #307,Los Angeles,CA,90025
4685,2532 S Central Avenue,Los Angeles,CA,90011
4695,418 E 40Th Place,Los Angeles,CA,90011
4697,1612 S Bundy Drive Unit #4,Los Angeles,CA,90025
4698,1305 E Vernon Avenue,Los Angeles,CA,90011
4705,12100 Wilshire Blvd #1940,Los Angeles,CA,90025
4707,2818 St George Street,Los Angeles,CA,90027
4712,12400 Wilshire Blvd #1275,Los Angeles,CA,90025
4717,908 E Jefferson Blvd,Los Angeles,CA,90011
4718,4551 Kingswell Avenue,Los Angeles,CA,90027
4725,162 E 56Th Street,Los Angeles,CA,90011
4729,4417 Avalon Blvd #3,Los Angeles,CA,90011
4734,4654 Carnegie Street,Los Angeles,CA,90032
4736,11628 Santa Monica Blvd #2,Los Angeles,CA,90025
4739,11356 Missouri Avenue,Los Angeles,CA,90025
4742,5801 S Central Avenue #G,Los Angeles,CA,90011
4747,1718 Federal Avenue,Los Angeles,CA,90025
4748,1944 Glendon Avenue Unit #108,Los Angeles,CA,90025
4751,2011 Cummings Drive,Los Angeles,CA,90027
4753,1907 Comstock Avenue,Los Angeles,CA,90025
4756,1718 N Vermont Avenue,Los Angeles,CA,90027
4758,1026 E 42Nd Street,Los Angeles,CA,90011
4762,3741 Hellman Avenue,Los Angeles,CA,90032
4768,440 E 27Th Street #6,Los Angeles,CA,90011
4772,5358 Loma Linda Avenue #10,Los Angeles,CA,90027
4780,3775 Aloha Street,Los Angeles,CA,90027
4781,1822 Hillhurst Avenue Unit #1,Los Angeles,CA,90027
4782,11111 Santa Monica Blvd Suite #800,Los Angeles,CA,90025
4783,1616 S Barrington Avenue #201,Los Angeles,CA,90025
4784,2526 Hyperion Avenue Unit #3,Los Angeles,CA,90027
4785,307 E Jefferson Blvd #412,Los Angeles,CA,90011
4789,1939 Corinth Avenue #5,Los Angeles,CA,90025
4791,1640 S Sepulveda Blvd Suite #300,Los Angeles,CA,90025
4794,255 E 28Th Street #301,Los Angeles,CA,90011
4796,1686 E 41St Street,Los Angeles,CA,90011
4800,1950 Sawtelle Blvd Suite #310,Los Angeles,CA,90025
4806,2048 Armacost Avenue Floor #2,Los Angeles,CA,90025
4808,2001 S Barrington Avenue #203,Los Angeles,CA,90025
4809,2046 Colby Avenue,Los Angeles,CA,90025
4819,11620 Wilshire Blvd Suite #220,Los Angeles,CA,90025
4839,11601 Wilshire Blvd,Los Angeles,CA,90025
4842,1738 Barry Avenue #4,Los Angeles,CA,90025
4851,4431 Ambrose Avenue #B,Los Angeles,CA,90027
4857,3502 Copeland Place #3,Los Angeles,CA,90032
4862,693 E 43Rd Street,Los Angeles,CA,90011
4874,3921 Drysdale Avenue,Los Angeles,CA,90032
4878,2110 Cotner Avenue,Los Angeles,CA,90025
4880,3170 1/2 Rowena Avenue,Los Angeles,CA,90027
4882,11261 Santa Monica Blvd,Los Angeles,CA,90025
4889,5034 Hollywood Blvd,Los Angeles,CA,90027
4894,2001 S Barrington Avenue #203,Los Angeles,CA,90025
4898,272 E Vernon Avenue,Los Angeles,CA,90011
4901,324 E 51St Street,Los Angeles,CA,90011
4902,1138 E 20Th Street,Los Angeles,CA,90011
4905,2800 Hyperion Avenue,Los Angeles,CA,90027
4907,4208 Clayton Avenue Apt #4,Los Angeles,CA,90027
4908,5522 Hooper Avenue,Los Angeles,CA,90011
4909,12410 Santa Monica Blvd,Los Angeles,CA,90025
4910,1849 Sawtelle Blvd #660,Los Angeles,CA,90025
4912,1364 E 41St Place,Los Angeles,CA,90011
4919,3902 De Longpre Avenue,Los Angeles,CA,90027
4920,959 E 31St Street,Los Angeles,CA,90011
4922,4161 Los Feliz Blvd,Los Angeles,CA,90027
4928,1840 Camden Avenue #206,Los Angeles,CA,90025
4930,3721 Collis Avenue,Los Angeles,CA,90032
4933,1706 Colby Avenue Apt #301,Los Angeles,CA,90025
4938,5409 Carlton Way Unit #210,Los Angeles,CA,90027
4939,4633 Harriman Avenue,Los Angeles,CA,90032
4944,4121 Raynol Street,Los Angeles,CA,90032
4946,1552 N Commonwealth Avenue #4,Los Angeles,CA,90027
4954,3809 Crawford Street,Los Angeles,CA,90011
4956,327 E 58Th Street Unit #331-339,Los Angeles,CA,90011
4957,3981 Prospect Avenue,Los Angeles,CA,90027
4966,11333 Iowa Avenue,Los Angeles,CA,90025
4971,1990 S Bundy Drive #345,Los Angeles,CA,90025
4974,2700 Maple Avenue Suite #M-1,Los Angeles,CA,90011
4976,12130 Ohio Avenue Apt #309,Los Angeles,CA,90025
4977,787 E 54Th Street,Los Angeles,CA,90011
4978,815 E 43Rd Place,Los Angeles,CA,90011
4980,1231 S Bundy Drive #4,Los Angeles,CA,90025
4982,1235 Granville Avenue #Ph6,Los Angeles,CA,90025
4983,453 E 43Rd Place,Los Angeles,CA,90011
4994,806 E 41St Street,Los Angeles,CA,90011
4995,1738 Armacost Avenue Apt #102,Los Angeles,CA,90025
4996,3611 El Sereno Avenue,Los Angeles,CA,90032
5001,4437 Ambrose Avenue Apt #16,Los Angeles,CA,90027
5002,2803 Budau Avenue,Los Angeles,CA,90032
5003,1944 Glendon Avenue #110,Los Angeles,CA,90025
5004,4336 Russell Avenue,Los Angeles,CA,90027
5018,11600 Rochester Avenue Apt #1,Los Angeles,CA,90025
5020,12100 Wilshire Blvd Suite #200,Los Angeles,CA,90025
5029,10436 Santa Monica Blvd Suite #3005,Los Angeles,CA,90025
5030,5227 W Sunset Blvd,Los Angeles,CA,90027
5034,1447 Armacost Avenue #4,Los Angeles,CA,90025
5035,3007 S Central Avenue,Los Angeles,CA,90011
5039,3912 Tampico Avenue,Los Angeles,CA,90032
5041,2126 Cotner Avenue Suite #1,Los Angeles,CA,90025
5044,1830 Westholme Avenue Apt #301,Los Angeles,CA,90025
5045,4210 San Pedro Place,Los Angeles,CA,90011
5046,12401 Wilshire Blvd Suite #303,Los Angeles,CA,90025
5047,2901 S San Pedro Street,Los Angeles,CA,90011
5049,5314 Franklin Avenue #10,Los Angeles,CA,90027
5050,4470 W Sunset Blvd #90170,Los Angeles,CA,90027
5053,12400 Wilshire Blvd Suite #400,Los Angeles,CA,90025
5056,1627 N Normandie Avenue ##4,Los Angeles,CA,90027
5057,4428 Finley Avenue,Los Angeles,CA,90027
5060,11041 Santa Monica Blvd Suite #630,Los Angeles,CA,90025
5063,194 E Jefferson Blvd,Los Angeles,CA,90011
5064,4793 Valley Blvd,Los Angeles,CA,90032
5066,4334 Sardonyx Street,Los Angeles,CA,90032
5071,1601 Sawtelle Blvd #27,Los Angeles,CA,90025
5078,1552 1/2 Rosalia Road,Los Angeles,CA,90027
5081,730 1/2 E 41St Street,Los Angeles,CA,90011
5083,11755 Wilshire Blvd Suite #2100,Los Angeles,CA,90025
5089,11901 Santa Monica Blvd #508,Los Angeles,CA,90025
5091,4955 Renovo Street,Los Angeles,CA,90032
5096,5602 S Central Avenue,Los Angeles,CA,90011
5099,1538 Granville Avenue Apt #6,Los Angeles,CA,90025
5117,2601 S San Pedro Street,Los Angeles,CA,90011
5125,10817 Santa Monica Blvd Suite #203,Los Angeles,CA,90025
5128,11111 Santa Monica Blvd Suite #1700,Los Angeles,CA,90025
5131,1914 Corinth Avenue #210,Los Angeles,CA,90025
5132,4611 Avalon Blvd,Los Angeles,CA,90011
5140,1341 E 41St Place,Los Angeles,CA,90011
5143,1990 S Bundy Drive Suite #200,Los Angeles,CA,90025
5151,10323 Santa Monica Blvd Suite #109,Los Angeles,CA,90025
5155,5120 Huntington Drive S,Los Angeles,CA,90032
5168,4470 W Sunset Blvd Unit #92969,Los Angeles,CA,90027
5169,4040 Woodlawn Avenue Unit #5,Los Angeles,CA,90011
5175,1518 Myra Avenue,Los Angeles,CA,90027
5176,1024 E 28Th Street Unit #B,Los Angeles,CA,90011
5177,1451 1/2 Butler Avenue,Los Angeles,CA,90025
5180,11601 Wilshire Blvd Unit #107,Los Angeles,CA,90025
5202,1715 S Carmelina Avenue,West Los Angeles,CA,90025
5204,1600 N Vermont Avenue,Los Angeles,CA,90027
5209,12381 Wilshire Blvd #104,Los Angeles,CA,90025
5211,11711 Ohio Avenue,Los Angeles,CA,90025
5215,1551 N Vermont Avenue Unit #1,Los Angeles,CA,90027
5232,1621 1/2 Lyman Place,Los Angeles,CA,90027
5249,12124 Ohio Avenue,Los Angeles,CA,90025
5250,1968 Cummings Drive,Los Angeles,CA,90027
5251,11601 Wilshire Blvd Suite #300,Los Angeles,CA,90025
5261,1525 N Kenmore Avenue #207,Los Angeles,CA,90027
5265,11050 Santa Monica Blvd,Los Angeles,CA,90025
5274,1512 Colby Avenue Unit #8,Los Angeles,CA,90025
5277,1920 Hillhurst Avenue #208,Los Angeles,CA,90027
5282,3325 S Central Avenue #301,Los Angeles,CA,90011
5287,5167 W Sunset Blvd,Los Angeles,CA,90027
5288,5429 Russell Avenue Unit #30,Los Angeles,CA,90027
5289,631 E 23Rd Street,Los Angeles,CA,90011
5292,2001 S Barrington Avenue #211,Los Angeles,CA,90025
5293,1920 Hillhurst Avenue Unit #194,Los Angeles,CA,90027
5294,4470 W Sunset Blvd Suite #91827,Los Angeles,CA,90027
5296,1451 E 48Th Street,Los Angeles,CA,90011
5297,3544 Griffith Park Blvd,Los Angeles,CA,90027
5302,11110 Ohio Avenue Suite #100,Los Angeles,CA,90025
5303,955 E 55Th Street,Los Angeles,CA,90011
5305,1307 Barry Avenue #11,Los Angeles,CA,90025
5311,1419 E 22Nd Street,Los Angeles,CA,90011
5314,11766 Wilshire Blvd #900,Los Angeles,CA,90025
5315,2135 Camden Avenue,Los Angeles,CA,90025
5326,2835 Hyperion Avenue,Los Angeles,CA,90027
5339,4441 1/2 Turquoise Street,Los Angeles,CA,90032
5345,3824 Udell Court,Los Angeles,CA,90027
5367,2064 N New Hampshire Avenue,Los Angeles,CA,90027
5374,1322 L Ron Hubbard Way Unit #10,Los Angeles,CA,90027
5376,1835 S Sepulveda Blvd,Los Angeles,CA,90025
5377,4330 1/2 Honduras Street,Los Angeles,CA,90011
5382,1562 1/2 E 45Th Street,Los Angeles,CA,90011
5388,4838 Zella Place,Los Angeles,CA,90032
5390,4247 Holly Knoll Drive,Los Angeles,CA,90027
5401,4250 Avalon Blvd,Los Angeles,CA,90011
5404,3325 S Central Avenue,Los Angeles,CA,90011
5406,2054 Dracena Drive #1,Los Angeles,CA,90027
5418,1282 Barry Avenue,Los Angeles,CA,90025
5419,1405 N New Hampshire Avenue Unit #203,Los Angeles,CA,90027
5422,2001 S Barrington Avenue,Los Angeles,CA,90025
5433,1802 Brockton Avenue,Los Angeles,CA,90025
5437,11829 Wilshire Blvd,Los Angeles,CA,90025
5441,4391 Clayton Avenue,Los Angeles,CA,90027
5442,4801 1/2 Hooper Avenue,Los Angeles,CA,90011
5445,1977 S Los Angeles Street,Los Angeles,CA,90011
5460,2264 Winona Blvd,Los Angeles,CA,90027
5461,5301 W Sunset Blvd Suite #2,Los Angeles,CA,90027
5462,11870 Santa Monica Blvd Suite #105,Los Angeles,CA,90025
5469,1930 Ronda Drive,Los Angeles,CA,90032
5478,12100 Wilshire Blvd #445,Los Angeles,CA,90025
5479,2115 Linnington Avenue,Los Angeles,CA,90025
5483,1063 E 42Nd Street Suite #H,Los Angeles,CA,90011
5488,401 E 58Th Street,Los Angeles,CA,90011
5493,1740 Winona Blvd #200,Los Angeles,CA,90027
5496,1717 N Normandie Avenue Unit #109,Los Angeles,CA,90027
5498,3418 Huxley Street,Los Angeles,CA,90027
5504,1532 N Commonwealth Avenue,Los Angeles,CA,90027
5506,401 E 58Th Street,Los Angeles,CA,90011
5507,655 E 30Th Street,Los Angeles,CA,90011
5515,12100 Wilshire Blvd Suite #1150,Los Angeles,CA,90025
5523,12021 Wilshire Blvd Suite #651,Los Angeles,CA,90025
5525,2115 Hollyvista Avenue,Los Angeles,CA,90027
5536,1924 Purdue Avenue,Los Angeles,CA,90025
5540,1830 N Mariposa Avenue #4,Los Angeles,CA,90027
5541,3437 Linda Vista Terrace,Los Angeles,CA,90032
5547,1975 Dracena Drive,Los Angeles,CA,90027
5553,5420 Huntington Drive S,Los Angeles,CA,90032
5555,2835 Hyperion Avenue,Los Angeles,CA,90027
5556,12001 Santa Monica Blvd,Los Angeles,CA,90025
5560,1401 N Vermont Avenue,Los Angeles,CA,90027
5566,813 E Slauson Avenue,Los Angeles,CA,90011
5571,4446 Gainsborough Avenue,Los Angeles,CA,90027
5574,4046 Camero Avenue,Los Angeles,CA,90027
5576,10516 Santa Monica Blvd Suite #2,Los Angeles,CA,90025
5578,5372 Oakland Street,Los Angeles,CA,90032
5583,2076 Westwood Blvd,Los Angeles,CA,90025
5584,1175 E 42Nd Street,Los Angeles,CA,90011
5594,12075 Wilshire Blvd,Los Angeles,CA,90025
5596,4514 Kingswell Avenue,Los Angeles,CA,90027
5598,11041 Santa Monica Blvd #407,Los Angeles,CA,90025
5603,5051 Hollywood Blvd,Los Angeles,CA,90027
5604,2068 Hillhurst Avenue,Los Angeles,CA,90027
5611,5208 Almont Street,Los Angeles,CA,90032
5622,12400 Wilshire Blvd Suite #920,Los Angeles,CA,90025
5625,940 E Martin Luther King Jr Blvd,Los Angeles,CA,90011
5632,3045 Chadwick Drive,Los Angeles,CA,90032
5648,11110 Ohio Avenue #108,Los Angeles,CA,90025
5649,4459 Avocado Street Suite #4,Los Angeles,CA,90027
5651,11333 Iowa Avenue,Los Angeles,CA,90025
5657,10350 Santa Monica Blvd,Los Angeles,CA,90025
5662,4611 Kingswell Avenue,Los Angeles,CA,90027
5664,1632 Camden Avenue #103,Los Angeles,CA,90025
5665,1436 Brockton Avenue #9,Los Angeles,CA,90025
5667,1427 N Kingsley Drive #102,Los Angeles,CA,90027
5671,716 E 54Th Street,Los Angeles,CA,90011
5672,1659 1/2 Lyman Place,Los Angeles,CA,90027
5674,5435 Russell Avenue #4,Los Angeles,CA,90027
5678,1626 N Hoover Street,Los Angeles,CA,90027
5680,406 E 21St Street,Los Angeles,CA,90011
5682,1920 Hillhurst Avenue Suite #257,Los Angeles,CA,90027
5684,4977 Hollywood Blvd,Los Angeles,CA,90027
5685,656 E 42Nd Street,Los Angeles,CA,90011
5689,12227 Wilshire Blvd,Los Angeles,CA,90025
5691,1806 N Berendo Street #106,Los Angeles,CA,90027
5693,4470 W Sunset Blvd #90057,Los Angeles,CA,90027
5697,5123 S Central Avenue,Los Angeles,CA,90011
5698,5416 Carlton Way,Los Angeles,CA,90027
5700,1619 N Vermont Avenue,Los Angeles,CA,90027
5703,12121 Wilshire Blvd Suite #810,Los Angeles,CA,90025
5712,12424 Wilshire Blvd Suite #1120,Los Angeles,CA,90025
5715,1300 N Vermont Avenue,Los Angeles,CA,90027
5718,4730 Valley Blvd Unit #E&F,Los Angeles,CA,90032
5723,5801 S Central Avenue #C,Los Angeles,CA,90011
5725,5225 S Central Avenue,Los Angeles,CA,90011
5726,1753 N Alexandria Avenue,Los Angeles,CA,90027
5728,4100 Avalon Blvd,Los Angeles,CA,90011
5731,5469 Alhambra Avenue,Los Angeles,CA,90032
5742,2948 Hyperion Avenue,Los Angeles,CA,90027
5747,1270 Stoner Avenue,Los Angeles,CA,90025
5756,130 E 33Rd Street,Los Angeles,CA,90011
5759,1990 Westwood Blvd Suite #220,Los Angeles,CA,90025
5761,4128 Guardia Avenue,Los Angeles,CA,90032
5764,1941 Beloit Avenue Unit #5,Los Angeles,CA,90025
5772,1903 Maple Avenue,Los Angeles,CA,90011
5787,4616 Greenwood Place #3,Los Angeles,CA,90027
5792,415 E 56Th Street,Los Angeles,CA,90011
5807,1415 N Vermont Avenue,Los Angeles,CA,90027
5808,11620 Wilshire Blvd Suite #715,Los Angeles,CA,90025
5811,12304 Santa Monica Blvd Suite #109,Los Angeles,CA,90025
5815,1535 S Sepulveda Blvd,Los Angeles,CA,90025
5817,1967 N Commonwealth Avenue,Los Angeles,CA,90027
5826,5218 W Sunset Blvd,Los Angeles,CA,90027
5827,1930 Fairburn Avenue,Los Angeles,CA,90025
5834,12401 Wilshire Blvd #103,West Los Angeles,CA,90025
5837,1939 Benecia Avenue,Los Angeles,CA,90025
5839,11870 Santa Monica Blvd Suite #106672,Los Angeles,CA,90025
5846,2028 Cotner Avenue,Los Angeles,CA,90025
5852,3027 St George Street,Los Angeles,CA,90027
5855,1933 Laughlin Park Drive,Los Angeles,CA,90027
5856,4470 W Sunset Blvd #471,Los Angeles,CA,90027
5857,1864 Talmadge Street,Los Angeles,CA,90027
5861,1716 N Edgemont Street #22,Los Angeles,CA,90027
5867,11901 Santa Monica Blvd #491,Los Angeles,CA,90025
5871,12100 Wilshire Blvd Suite #800,Los Angeles,CA,90025
5873,1300 N Vermont Avenue #705,Los Angeles,CA,90027
5880,12121 Wilshire Blvd,Los Angeles,CA,90025
5882,2130 Sawtelle Blvd #200,Los Angeles,CA,90025
5885,1917 Rodney Drive #108,Los Angeles,CA,90027
5889,3267 3/4 Rowena Avenue,Los Angeles,CA,90027
5908,1710 Purdue Avenue #204,Los Angeles,CA,90025
5919,4504 E Rose Hill Drive,Los Angeles,CA,90032
5924,1330 N Kenmore Avenue,Los Angeles,CA,90027
5933,11734 Wilshire Blvd Unit #C-610,Los Angeles,CA,90025
5934,2030 Dracena Drive #19,Los Angeles,CA,90027
5938,4341 1/2 Van Horne Avenue,Los Angeles,CA,90032
5942,1640 S Sepulveda Blvd Suite #300,Los Angeles,CA,90025
5944,1820 N Normandie Avenue Unit #5,Los Angeles,CA,90027
5957,1629 Talmadge Street,Los Angeles,CA,90027
5959,10700 Santa Monica Blvd Unit #300,Los Angeles,CA,90025
5965,2610 St George Street,Los Angeles,CA,90027
5966,3215 Dorchester Avenue,Los Angeles,CA,90032
5967,11601 Wilshire Blvd Suite #580,Los Angeles,CA,90025
5971,12400 Wilshire Blvd #920,Los Angeles,CA,90025
5974,11800 Wilshire Blvd,Los Angeles,CA,90025
5976,2180 Westwood Blvd #2P,Los Angeles,CA,90025
5980,1849 Sawtelle Blvd #680,Los Angeles,CA,90025
5984,2549 N Catalina Street,Los Angeles,CA,90027
6000,1522 N Mariposa Avenue,Los Angeles,CA,90027
6001,11860 Wilshire Blvd,Los Angeles,CA,90025
6002,11022 Santa Monica Blvd Suite #330,Los Angeles,CA,90025
6006,1441 E 56H Street,Los Angeles,CA,90011
6008,1921 N Normandie Avenue,Los Angeles,CA,90027
6010,1307 Barry Avenue #7,Los Angeles,CA,90025
6013,2028 Cotner Avenue,Los Angeles,CA,90025
6022,11860 Wilshire Blvd Suite #100,Los Angeles,CA,90025
6028,191 E Jefferson Blvd,Los Angeles,CA,90011
6029,11110 Ohio Avenue #202,Los Angeles,CA,90025
6031,1724 N Edgemont Street #412,Los Angeles,CA,90027
6048,1222 Mcclellan Drive #6,Los Angeles,CA,90025
6049,1852 Westwood Blvd,Los Angeles,CA,90025
6050,11427 Santa Monica Blvd,Los Angeles,CA,90025
6053,2525 Griffith Avenue,Los Angeles,CA,90011
6057,600 1/2 E 29Th Street,Los Angeles,CA,90011
6058,4940 Huntington Drive S,Los Angeles,CA,90032
6061,807 E 21St Street,Los Angeles,CA,90011
6062,5183 W Sunset Blvd,Los Angeles,CA,90027
6064,1343 E 21St Street,Los Angeles,CA,90011
6065,1912 Benecia Avenue,Los Angeles,CA,90025
6066,2508 Naomi Avenue,Los Angeles,CA,90011
6070,5310 Hollywood Blvd,Los Angeles,CA,90027
6071,2221 Observatory Avenue,Los Angeles,CA,90027
6072,1757 N Normandie Avenue #1,Los Angeles,CA,90027
6073,1920 Hillhurst Avenue Suite #505,Los Angeles,CA,90027
6074,1302 S Saltair Avenue #5,Los Angeles,CA,90025
6075,1953 Parnell Avenue,Los Angeles,CA,90025
6076,1817 Corinth Avenue Suite #4,Los Angeles,CA,90025
6077,4222 Barrett Road,Los Angeles,CA,90032
6078,1611 E 53Rd Street,Los Angeles,CA,90011
6079,11620 Wilshire Blvd Suite #900,Los Angeles,CA,90025
6080,11813 Santa Monica Blvd,West Los Angeles,CA,90025
6082,10740 Santa Monica Blvd,Los Angeles,CA,90025
6083,447 E 27Th Street,Los Angeles,CA,90011
6085,1645 E 50Th Place,Los Angeles,CA,90011
6086,4993 Huntington Drive N,Los Angeles,CA,90032
6087,5417 Mckinley Avenue,Los Angeles,CA,90011
6088,1235 E 24Th Street Unit #B,Los Angeles,CA,90011
6089,2501 Compton Avenue,Los Angeles,CA,90011
6090,4063 Adair Street,Los Angeles,CA,90011
6091,4637 Melbourne Avenue Apt #7,Los Angeles,CA,90027
6093,1444 Butler Avenue Apt #10,Los Angeles,CA,90025
6097,5401 Huntington Drive N,Los Angeles,CA,90032
6100,5105 W Sunset Blvd,Los Angeles,CA,90027
6101,4165 S Central Avenue,Los Angeles,CA,90011
6102,1700 Sawtelle Blvd #Ph13,Los Angeles,CA,90025
6103,4446 Huntington Drive S,Los Angeles,CA,90032
6104,410 E 55Th Street,Los Angeles,CA,90011
6105,2924 Maple Avenue,Los Angeles,CA,90011
6106,1737 Stoner Avenue #2,Los Angeles,CA,90025
6107,11567 Santa Monica Blvd,Los Angeles,CA,90025
6110,1950 Sawtelle Blvd,Los Angeles,CA,90025
6113,11819 Wilshire Blvd Suite #101,Los Angeles,CA,90025
6114,2616 Hooper Avenue,Los Angeles,CA,90011
6115,4220 Los Feliz Blvd,Los Angeles,CA,90027
6116,2055 S Barrington Avenue,Los Angeles,CA,90025
6118,3614 Adair Street,Los Angeles,CA,90011
6119,4730 Valley Blvd #A,Los Angeles,CA,90032
6120,12100 Wilshire Blvd Suite #1100,Los Angeles,CA,90025
6123,5107 Hollywood Blvd #104,Los Angeles,CA,90027
6124,1400 N Edgemont Street Apt #203,Los Angeles,CA,90027
6128,5332 Russell Avenue Apt #423,Los Angeles,CA,90027
6129,1777 N Vermont Avenue #208,Los Angeles,CA,90027
6130,4416 Gainsborough Avenue,Los Angeles,CA,90027
6132,1650 Corinth Avenue Apt #3,Los Angeles,CA,90025
6135,1910 Malcolm Avenue Apt #6,Los Angeles,CA,90025
6152,1848 1/2 N Kingsley Drive Apt #2,Los Angeles,CA,90027
6156,699 E 40Th Place Apt #7,Los Angeles,CA,90011
6163,4755 Templeton Street Apt #2203,Los Angeles,CA,90032
6168,445 E Adams Blvd Apt #12,Los Angeles,CA,90011
6171,1752 N Alexandria Avenue Apt #5,Los Angeles,CA,90027
6213,1543 Rosalia Road Apt #102,Los Angeles,CA,90027
6225,3348 Griffith Park Blvd Apt #19,Los Angeles,CA,90027
6232,1910 Corinth Avenue Apt #3,Los Angeles,CA,90025
6235,3311 Rowena Avenue Apt #17,Los Angeles,CA,90027
6238,5110 Harold Way Apt #5,Los Angeles,CA,90027
6239,4402 Los Feliz Blvd Apt #215,Los Angeles,CA,90027
6249,3400 Huxley Street Unit #202,Los Angeles,CA,90027
6254,1444 Colby Avenue Apt #7,Los Angeles,CA,90025
6255,1745 Winona Blvd Apt #12,Los Angeles,CA,90027
6258,10787 Missouri Avenue Apt #304,Los Angeles,CA,90025
6267,2055 Rodney Drive Apt #210,Los Angeles,CA,90027
6272,1603 Granville Avenue Apt #9,Los Angeles,CA,90025
6274,1250 Amherst Avenue Apt #302,Los Angeles,CA,90025
6278,4610 Hollywood Blvd,Los Angeles,CA,90027
6288,1750 N Western Avenue Apt #327,Los Angeles,CA,90027
6304,5465 Bohlig Road Apt #117,Los Angeles,CA,90032
6305,10715 Missouri Avenue Apt #305,Los Angeles,CA,90025
6316,4750 Templeton Street Apt #1323,Los Angeles,CA,90032
6323,1517 N Hoover Street Apt #4,Los Angeles,CA,90027
6332,1420 Camden Avenue Apt #13,Los Angeles,CA,90025
6355,12114 Idaho Avenue Apt #8,Los Angeles,CA,90025
6357,4755 Templeton Street Apt #2203,Los Angeles,CA,90032
6363,1450 Barry Avenue Apt #4,Los Angeles,CA,90025
6401,1537 Armacost Avenue Apt #3,Los Angeles,CA,90025
6408,1726 N Kingsley Drive Apt #110,Los Angeles,CA,90027
6409,2055 S Barrington Avenue,Los Angeles,CA,90025
6411,1745 N Kingsley Drive Apt #25,Los Angeles,CA,90027
6412,4420 Los Feliz Blvd Apt #209,Los Angeles,CA,90027
6426,1442 Brockton Avenue #1,Los Angeles,CA,90025
6427,1602 N Mariposa Avenue Apt #8,Los Angeles,CA,90027
6428,4017 Adair Street Apt #3,Los Angeles,CA,90011
6431,2008 Hyperion Avenue,Los Angeles,CA,90027
6436,1535 N Serrano Avenue Apt #3,Los Angeles,CA,90027
6462,1333 Bates Avenue Apt #2,Los Angeles,CA,90027
6463,1920 S Beverly Glen Blvd Unit #104,Los Angeles,CA,90025
6469,3100 Riverside Drive Apt #421,Los Angeles,CA,90027
6473,2701 S San Pedro Street,Los Angeles,CA,90011
6475,3729 Tracy Street Apt #4,Los Angeles,CA,90027
6477,1838 Westholme Avenue Apt #203,Los Angeles,CA,90025
6484,1616 N Normandie Avenue Apt #102,Los Angeles,CA,90027
6493,10801 Santa Monica Blvd,Los Angeles,CA,90025
6520,1735 N Normandie Avenue Apt #204,Los Angeles,CA,90027
6524,503 E 21St Street #A,Los Angeles,CA,90011
6529,4643 Los Feliz Blvd Apt #207,Los Angeles,CA,90027
6531,1443 Barry Avenue Apt #201,Los Angeles,CA,90025
6546,3376 Rowena Avenue Apt #204,Los Angeles,CA,90027
6560,4760 W Sunset Blvd,Los Angeles,CA,90027
6563,196 E Jefferson Blvd,Los Angeles,CA,90011
6570,1836 N New Hampshire Avenue Apt #105,Los Angeles,CA,90027
6593,1300 S Carmelina Avenue Apt #4,Los Angeles,CA,90025
6604,1730 Sawtelle Blvd Apt #314,Los Angeles,CA,90025
6609,10436 Santa Monica Blvd Suite #3010,Los Angeles,CA,90025
6625,12424 Wilshire Blvd Suite #1150,Los Angeles,CA,90025
6629,2123 Rodney Drive Apt #307,Los Angeles,CA,90027
6631,4751 Los Feliz Blvd,Los Angeles,CA,90027
6640,1227 S Westgate Avenue Unit #2,Los Angeles,CA,90025
6643,1334 S Carmelina Avenue Apt #9,Los Angeles,CA,90025
6664,5118 Harold Way Apt #9,Los Angeles,CA,90027
6681,12013 Wilshire Blvd Suite #A,Los Angeles,CA,90025
6684,4310 Finley Avenue Apt #11,Los Angeles,CA,90027
6700,3405 S San Pedro Street Apt #2,Los Angeles,CA,90011
6705,2131 S Beverly Glen Blvd #3,Los Angeles,CA,90025
6711,1834 Butler Avenue Apt #4,Los Angeles,CA,90025
6720,1737 1/2 N Edgemont Street,Los Angeles,CA,90027
6733,2908 St George Street Apt #3,Los Angeles,CA,90027
6741,1402 Wellesley Avenue Apt #101,Los Angeles,CA,90025
6747,1419 N Kingsley Drive Apt #101,Los Angeles,CA,90027
6751,1407 Brockton Avenue Apt #5,Los Angeles,CA,90025
6756,1839 Corinth Avenue Apt #1,Los Angeles,CA,90025
6770,1930 S Beverly Glen Blvd Apt #203,Los Angeles,CA,90025
6777,5035 Huntington Drive N,Los Angeles,CA,90032
6795,1835 Greenfield Avenue Apt #204,Los Angeles,CA,90025
6829,2121 Beloit Avenue Apt #302,Los Angeles,CA,90025
6877,1642 S Westgate Avenue Apt #6,Los Angeles,CA,90025
6889,11419 Santa Monica Blvd,Los Angeles,CA,90025
6905,11722 Ohio Avenue Unit #303,Los Angeles,CA,90025
6915,1820 1/2 Winona Blvd Apt #3,Los Angeles,CA,90027
6929,5333 Russell Avenue Apt #112,Los Angeles,CA,90027
6938,11535 Rochester Avenue Apt #307,Los Angeles,CA,90025
6940,1821 Winona Blvd Apt #2,Los Angeles,CA,90027
6953,1520 Camden Avenue Apt #306,Los Angeles,CA,90025
6958,1515 N Kingsley Drive Apt #2,Los Angeles,CA,90027
6964,4312 Los Feliz Blvd Apt #1,Los Angeles,CA,90027
6966,1535 Stoner Avenue Apt #9,Los Angeles,CA,90025
7010,5373 Alhambra Avenue,Los Angeles,CA,90032
7012,1750 N Western Avenue Apt #218,Los Angeles,CA,90027
7019,1743 Purdue Avenue Apt #4,Los Angeles,CA,90025
7024,1800 N New Hampshire Avenue Apt #218,Los Angeles,CA,90027
7033,11290 Ohio Avenue Apt #8,Los Angeles,CA,90025
7053,5465 Bohlig Road Apt #114,Los Angeles,CA,90032
7077,3892 Franklin Avenue,Los Angeles,CA,90027
7088,5410 Franklin Avenue Apt #1,Los Angeles,CA,90027
7097,3640 Monon Street Apt #116,Los Angeles,CA,90027
7099,1548 Granville Avenue Apt #5,Los Angeles,CA,90025
7114,2130 Sawtelle Blvd #211,Los Angeles,CA,90025
7117,5358 Loma Linda Avenue Apt #2,Los Angeles,CA,90027
7121,3837 Los Feliz Blvd Unit #5,Los Angeles,CA,90027
7138,2020 Dracena Drive Apt #5,Los Angeles,CA,90027
7141,1402 S Saltair Avenue Apt #6,Los Angeles,CA,90025
7178,11601 Wilshire Blvd #1960,Los Angeles,CA,90025
7185,4252 Los Feliz Blvd,Los Angeles,CA,90027
7195,1712 N Kingsley Drive Apt #217,Los Angeles,CA,90027
7197,2042 1/2 N Vermont Avenue,Los Angeles,CA,90027
7201,1816 Purdue Avenue Apt #105,Los Angeles,CA,90025
7202,1749 N Serrano Avenue Apt #309,Los Angeles,CA,90027
7205,1626 N Hobart Blvd Apt #15,Los Angeles,CA,90027
7216,3848 Los Feliz Blvd Apt #25,Los Angeles,CA,90027
7246,5426 Harold Way Apt #105,Los Angeles,CA,90027
7254,4411 Los Feliz Blvd Apt #1005,Los Angeles,CA,90027
7266,4616 Greenwood Place Apt #5,Los Angeles,CA,90027
7269,1650 N Serrano Avenue Apt #204,Los Angeles,CA,90027
7296,3536 Holboro Drive,Los Angeles,CA,90027
7303,2025 Camden Avenue,Los Angeles,CA,90025
7346,4574 Finley Avenue Apt #6,Los Angeles,CA,90027
7356,4651 Huntington Drive N Apt #308,Los Angeles,CA,90032
7371,5314 Franklin Avenue Apt #7,Los Angeles,CA,90027
7382,3128 Rowena Avenue Apt #3,Los Angeles,CA,90027
7387,4310 Russell Avenue Unit #21,Los Angeles,CA,90027
7399,1800 N Kingsley Drive,Los Angeles,CA,90027
7406,4314 Clayton Avenue,Los Angeles,CA,90027
7420,2062 Dracena Drive Apt #8,Los Angeles,CA,90027
7440,1731 Camden Avenue Apt #2,Los Angeles,CA,90025
7441,4052 1/2 S Central Avenue,Los Angeles,CA,90011
7454,12304 Rochester Avenue Apt #6,Los Angeles,CA,90025
7466,5321 Hollywood Blvd,Los Angeles,CA,90027
7473,1833 N Normandie Avenue Apt #202,Los Angeles,CA,90027
7487,1808 S Bundy Drive Apt #1,Los Angeles,CA,90025
7490,1752 Brockton Avenue Apt #5,Los Angeles,CA,90025
7491,11918 Santa Monica Blvd,Los Angeles,CA,90025
7504,1257 Brockton Avenue Apt #201,Los Angeles,CA,90025
7505,1550 N Hobart Blvd Apt #214,Los Angeles,CA,90027
7535,1605 Armacost Avenue Apt #203,Los Angeles,CA,90025
7546,3800 Monterey Road Apt #105,Los Angeles,CA,90032
7549,1619 N Kenmore Avenue Apt #3,Los Angeles,CA,90027
7552,5118 Harold Way Unit #9A,Los Angeles,CA,90027
7559,4426 Kingswell Avenue Apt #3,Los Angeles,CA,90027
7561,11901 Santa Monica Blvd,Los Angeles,CA,90025
7583,5118 De Longpre Avenue Apt #116,Los Angeles,CA,90027
7615,1800 N New Hampshire Avenue #211,Los Angeles,CA,90027
7618,1821 N Alexandria Avenue #2,Los Angeles,CA,90027
7627,12424 Wilshire Blvd Suite #1150,Los Angeles,CA,90025
7630,1525 S Saltair Avenue Apt #215A,Los Angeles,CA,90025
7646,5417 Compton Avenue,Los Angeles,CA,90011
7658,430 E 51St Street,Los Angeles,CA,90011
7678,1524 Granville Avenue Apt #Ph1,Los Angeles,CA,90025
7681,11755 Wilshire Blvd Unit #2340,Los Angeles,CA,90025
7691,1851 N Normandie Avenue Apt #3,Los Angeles,CA,90027
7692,1947 Palmerston Place,Los Angeles,CA,90027
7700,1917 Rodney Drive Apt #308,Los Angeles,CA,90027
7715,1446 Armacost Avenue Apt #103,Los Angeles,CA,90025
7728,312 E 25Th Street Apt #7,Los Angeles,CA,90011
7754,4620 Hollywood Blvd,Los Angeles,CA,90027
7755,1506 S Bentley Avenue Apt #305,Los Angeles,CA,90025
7764,1815 N Serrano Avenue Apt #307,Los Angeles,CA,90027
7765,4407 Prospect Avenue Apt #9,Los Angeles,CA,90027
7772,1500 Purdue Avenue Apt #301,Los Angeles,CA,90025
7774,1634 S Bundy Drive Apt #4,Los Angeles,CA,90025
7786,5401 W Sunset Blvd,Los Angeles,CA,90027
7789,5078 Bohlig Road,Los Angeles,CA,90032
7801,2031 Dracena Drive Apt #212,Los Angeles,CA,90027
7805,1800 N Normandie Avenue Apt #127,Los Angeles,CA,90027
7809,1814 Parnell Avenue Apt #10,Los Angeles,CA,90025
7817,307 E Jefferson Blvd Unit #129,Los Angeles,CA,90011
7821,1817 Prosser Avenue Apt #301,Los Angeles,CA,90025
7826,4635 Prospect Avenue,Los Angeles,CA,90027
7827,4700 Los Feliz Blvd Apt #3,Los Angeles,CA,90027
7833,1300 N Vermont Avenue,Los Angeles,CA,90027
7841,3325 Rowena Avenue,Los Angeles,CA,90027
7844,5800 S Central Avenue,Los Angeles,CA,90011
7855,1917 Rodney Drive Apt #309,Los Angeles,CA,90027
7869,5200 Oakland Street Apt #202,Los Angeles,CA,90032
7870,1245 Mcclellan Drive Apt #303,Los Angeles,CA,90025
7871,1808 N Harvard Blvd Apt #14,Los Angeles,CA,90027
7872,2015 Pontius Avenue,Los Angeles,CA,90025
7874,2520 Hyperion Avenue,Los Angeles,CA,90027
7879,1345 N Kingsley Drive Apt #113,Los Angeles,CA,90027
7886,12340 Rochester Avenue Apt #102,Los Angeles,CA,90025
7907,1601 N Kingsley Drive Apt #8,Los Angeles,CA,90027
7920,1663 Sawtelle Blvd Unit #250,Los Angeles,CA,90025
7922,1831 Winona Blvd Apt #103,Los Angeles,CA,90027
7923,1818 Corinth Avenue Apt #3,Los Angeles,CA,90025
7945,12301 Wilshire Blvd Suite #202,Los Angeles,CA,90025
7955,4642 Zane Street,Los Angeles,CA,90032
7957,4108 Naomi Avenue,Los Angeles,CA,90011
7963,4439 Price Street Apt #2,Los Angeles,CA,90027
7964,4631 Clarissa Avenue Apt,Los Angeles,CA,90027
7984,2160 S Beverly Glen Blvd Apt #226,Los Angeles,CA,90025
7986,1620 N Normandie Avenue Apt #3,Los Angeles,CA,90027
7992,4555 Franklin Avenue Apt #1,Los Angeles,CA,90027
8005,1627 Granville Avenue Apt #5,Los Angeles,CA,90025
8007,5118 De Longpre Avenue Apt #116,Los Angeles,CA,90027
8009,5414 Franklin Avenue Apt #1,Los Angeles,CA,90027
8043,1926 Manning Avenue Apt #103,Los Angeles,CA,90025
8049,1725 N Edgemont Street Apt #205,Los Angeles,CA,90027
8057,1516 N Western Avenue Apt #117,Los Angeles,CA,90027
8093,2055 Rodney Drive Apt #302,Los Angeles,CA,90027
8114,1821 N Alexandria Avenue Apt #17,Los Angeles,CA,90027
8119,1678 Federal Avenue Apt #7,Los Angeles,CA,90025
8148,301 E 51St Street Apt #1,Los Angeles,CA,90011
8156,1433 Barry Avenue Apt #202,Los Angeles,CA,90025
8160,1818 Corinth Avenue Apt #I,Los Angeles,CA,90025
8182,11740 Wilshire Blvd Apt #A805,Los Angeles,CA,90025
8192,4551 Kingswell Avenue Apt #1/4,Los Angeles,CA,90027
8204,1600 Camden Avenue Apt #8,Los Angeles,CA,90025
8210,1545 Amherst Avenue Apt #306,Los Angeles,CA,90025
8212,1850 Veteran Avenue Apt #205,Los Angeles,CA,90025
8219,4600 Los Feliz Blvd Apt #207,Los Angeles,CA,90027
8226,1421 Greenfield Avenue Apt #4,Los Angeles,CA,90025
8247,1800 N Harvard Blvd Apt #6,Los Angeles,CA,90027
8261,11960 Iowa Avenue Apt #9,Los Angeles,CA,90025
8273,12424 Wilshire Blvd Suite #1150,Los Angeles,CA,90025
8274,3719 Rosemead Avenue Apt #8,Los Angeles,CA,90032
8277,1940 S Beverly Glen Blvd Apt #8,Los Angeles,CA,90025
8280,4610 Valley Blvd #A,Los Angeles,CA,90032
8292,4313 Russell Avenue Apt #4,Los Angeles,CA,90027
8300,1323 Barry Avenue Apt #1,Los Angeles,CA,90025
8312,1407 Brockton Avenue Apt #5,Los Angeles,CA,90025
8333,1721 Purdue Avenue Apt #201,Los Angeles,CA,90025
8345,2038 S Bentley Avenue Apt #102,Los Angeles,CA,90025
8347,858 E 28Th Street Apt #3,Los Angeles,CA,90011
8360,5400 Franklin Avenue,Los Angeles,CA,90027
8393,2050 Rodney Drive Apt #1,Los Angeles,CA,90027
8422,1733 Granville Avenue Apt #9,Los Angeles,CA,90025
8423,11819 Wilshire Blvd #205,Los Angeles,CA,90025
8425,5733 Huntington Drive N Apt #2,Los Angeles,CA,90032
8440,1831 N New Hampshire Avenue Apt #202,Los Angeles,CA,90027
8444,1810 Stoner Avenue,Los Angeles,CA,90025
8446,2580 N Soto Street Apt #401,Los Angeles,CA,90032
8481,1525 S Saltair Avenue #114,Los Angeles,CA,90025
8510,3675 Monon Street Apt #302,Los Angeles,CA,90027
8520,1829 Butler Avenue Apt #202,Los Angeles,CA,90025
8523,3986 Drysdale Avenue,Los Angeles,CA,90032
8543,1853 S Bentley Avenue Apt #102,Los Angeles,CA,90025
8548,5440 Carlton Way #206,Los Angeles,CA,90027
8553,1262 S Barrington Avenue Apt #105,Los Angeles,CA,90025
8564,11825 Iowa Avenue Apt #2,Los Angeles,CA,90025
8567,1543 Sawtelle Blvd,Los Angeles,CA,90025
8596,2202 Richland Avenue Apt #3,Los Angeles,CA,90027
8602,1721 S Westgate Avenue Apt #2,Los Angeles,CA,90025
8611,1624 N Serrano Avenue Apt #5/8,Los Angeles,CA,90027
8614,11755 Wilshire Blvd Suite #2100,Los Angeles,CA,90025
8627,2041 Beloit Avenue Apt #4,Los Angeles,CA,90025
8629,12424 Wilshire Blvd Suite #1150,Los Angeles,CA,90025
8636,2003 Midvale Avenue,Los Angeles,CA,90025
8637,1416 N New Hampshire Avenue,Los Angeles,CA,90027
8642,4003 Sunset Drive #8,Los Angeles,CA,90027
8658,1724 S Westgate Avenue Apt #5,Los Angeles,CA,90025
8666,1401 N Catalina Street Unit #4,Los Angeles,CA,90027
8682,1281 Federal Avenue Apt #2,Los Angeles,CA,90025
8685,2358 N Vermont Avenue,Los Angeles,CA,90027
8690,4444 Los Feliz Blvd Apt #107,Los Angeles,CA,90027
8695,2160 S Beverly Glen Blvd Apt #108,Los Angeles,CA,90025
8701,2045 Beloit Avenue Apt #101,Los Angeles,CA,90025
8709,10350 Santa Monica Blvd Suite #190,Los Angeles,CA,90025
8712,3116 Rowena Avenue Apt #6,Los Angeles,CA,90027
8717,1450 Barry Avenue Apt #4,Los Angeles,CA,90025
8730,4807 Avalon Blvd Apt #1,Los Angeles,CA,90011
8732,3100 Riverside Drive Apt #242,Los Angeles,CA,90027
8747,1330 S Centinela Avenue Apt #7,Los Angeles,CA,90025
8748,4063 Adair Street,Los Angeles,CA,90011
8777,1830 Kelton Avenue Apt #8,Los Angeles,CA,90025
8790,11347 Nebraska Avenue Apt #302,Los Angeles,CA,90025
8805,1952 Selby Avenue #201,Los Angeles,CA,90025
8806,955 E Slauson Avenue,Los Angeles,CA,90011
8816,1277 Stoner Avenue Apt #106,Los Angeles,CA,90025
8824,2030 Dracena Drive Apt #13,Los Angeles,CA,90027
8831,1828 Prosser Avenue Apt #307,Los Angeles,CA,90025
8844,2813 St George Street Apt #4,Los Angeles,CA,90027
8864,4321 Los Feliz Blvd Apt #303,Los Angeles,CA,90027
8873,1812 Corinth Avenue Apt #11,Los Angeles,CA,90025
8875,10560 Santa Monica Blvd Apt #101,Los Angeles,CA,90025
8876,1432 S Saltair Avenue Apt #205,Los Angeles,CA,90025
8880,1621 N Hobart Blvd Apt #11,Los Angeles,CA,90027
8887,5418 Carlton Way Apt #3,Los Angeles,CA,90027
8897,1603 N Edgemont Street Apt #304,Los Angeles,CA,90027
8908,1850 Winona Blvd Apt #201,Los Angeles,CA,90027
8924,5110 Harold Way Apt #25,Los Angeles,CA,90027
8945,1810 Malcolm Avenue Apt #205,Los Angeles,CA,90025
8956,2929 St George Street Apt #3,Los Angeles,CA,90027
8962,1629 Armacost Avenue Apt #404,Los Angeles,CA,90025
8969,1262 S Barrington Avenue Apt #104,Los Angeles,CA,90025
8974,1726 N Kingsley Drive Apt #212,Los Angeles,CA,90027
8990,2727 Phelps Avenue Apt #4,Los Angeles,CA,90032
9014,1951 Malcolm Avenue Apt #207,Los Angeles,CA,90025
9036,1506 S Bentley Avenue Apt #205,Los Angeles,CA,90025
9046,2351 Warwick Avenue Apt #16,Los Angeles,CA,90032
9050,1824 Manning Avenue Apt #16,Los Angeles,CA,90025
9059,3376 Rowena Avenue Apt #201,Los Angeles,CA,90027
9071,11667 Ohio Avenue Apt #4,Los Angeles,CA,90025
9072,2001 S Barrington Avenue #115,Los Angeles,CA,90025
9077,4434 Los Feliz Blvd Apt #204,Los Angeles,CA,90027
9094,1956 N Commonwealth Avenue Apt #1,Los Angeles,CA,90027
9098,4033 Sunset Drive Apt #4,Los Angeles,CA,90027
9112,731 E Jefferson Blvd Apt #6,Los Angeles,CA,90011
9136,3120 Farnsworth Avenue,Los Angeles,CA,90032
9139,2351 Warwick Avenue Apt #25,Los Angeles,CA,90032
9140,11061 Missouri Avenue Apt #3,Los Angeles,CA,90025
9147,4657 Melbourne Avenue #13,Los Angeles,CA,90027
9149,11601 Wilshire Blvd Suite #2080,Los Angeles,CA,90025
9155,2515 Griffith Avenue,Los Angeles,CA,90011
9167,1933 Rodney Drive Apt #308,Los Angeles,CA,90027
9175,12233 Santa Monica Blvd,Los Angeles,CA,90025
9189,11347 Nebraska Avenue Apt #302,Los Angeles,CA,90025
9203,1603 N Edgemont Street Apt #203,Los Angeles,CA,90027
9211,2068 Dracena Drive,Los Angeles,CA,90027
9212,1610 Granville Avenue Apt #5,Los Angeles,CA,90025
9216,4655 Kingswell Avenue Unit #203,Los Angeles,CA,90027
9239,3335 Rowena Avenue Apt #4,Los Angeles,CA,90027
9250,11955 Iowa Avenue Apt #4,Los Angeles,CA,90025
9252,1655 Greenfield Avenue Apt #32,Los Angeles,CA,90025
9257,3634 Shannon Road,Los Angeles,CA,90027
9265,5425 Carlton Way Apt #403,Los Angeles,CA,90027
9269,5347 Oakland Street Apt #2,Los Angeles,CA,90032
9274,2001 S Barrington Avenue Suite #303,Los Angeles,CA,90025
9276,4045 Los Feliz Blvd Apt #12,Los Angeles,CA,90027
9282,4505 Los Feliz Blvd Unit #202,Los Angeles,CA,90027
9305,1236 Amherst Avenue Apt #10,Los Angeles,CA,90025
9309,4535 Russell Avenue Apt #3,Los Angeles,CA,90027
9311,1544 Granville Avenue Apt #102,Los Angeles,CA,90025
9316,1629 Armacost Avenue Apt #404,Los Angeles,CA,90025
9319,4646 Los Feliz Blvd Apt #211,Los Angeles,CA,90027
9320,4615 Finley Avenue #1,Los Angeles,CA,90027
9327,1525 S Saltair Avenue Apt #202,Los Angeles,CA,90025
9331,2370 Bullard Avenue Apt #2,Los Angeles,CA,90032
9335,11515 Rochester Avenue Apt #101,Los Angeles,CA,90025
9339,1525 N Kenmore Avenue Apt #101,Los Angeles,CA,90027
9347,11510 Iowa Avenue Apt #4,Los Angeles,CA,90025
9349,5801 S Central Avenue Unit #D,Los Angeles,CA,90011
9353,1731 Federal Avenue Apt #305,Los Angeles,CA,90025
9364,1506 S Bentley Avenue Apt #211,Los Angeles,CA,90025
9368,1508 Greenfield Avenue Unit #405,Los Angeles,CA,90025
9372,3546 Lowry Road,Los Angeles,CA,90027
9380,4415 Ambrose Avenue Apt #2,Los Angeles,CA,90027
9398,1814 N Normandie Avenue Apt #203,Los Angeles,CA,90027
9419,11609 Ohio Avenue Apt #3,Los Angeles,CA,90025
9433,1822 Pandora Avenue Unit #1,Los Angeles,CA,90025
9436,1540 Armacost Avenue Apt #4,Los Angeles,CA,90025
9443,10700 Santa Monica Blvd Suite #300,Los Angeles,CA,90025
9445,1471 E 55Th Street Apt #3,Los Angeles,CA,90011
9449,1700 Sawtelle Blvd Apt #121,Los Angeles,CA,90025
9465,4623 Ambrose Avenue Apt #1,Los Angeles,CA,90027
9469,1231 E 45Th Street Apt #1/2,Los Angeles,CA,90011
9471,1712 N Kingsley Drive Apt #214,Los Angeles,CA,90027
9483,1322 Amherst Avenue Apt #2,Los Angeles,CA,90025
9496,1640 N Hobart Blvd Apt #9,Los Angeles,CA,90027
9497,12424 Wilshire Blvd Suite #1150,Los Angeles,CA,90025
9508,1309 N Hobart Blvd,Los Angeles,CA,90027
9529,1672 N Western Avenue #409,Los Angeles,CA,90027
9537,1836 Hyperion Avenue,Los Angeles,CA,90027
9539,4451 Kingswell Avenue,Los Angeles,CA,90027
9587,11610 Iowa Avenue Apt #3,Los Angeles,CA,90025
9588,640 E 42Nd Street,Los Angeles,CA,90011
9624,1846 N Edgemont Street Apt #7,Los Angeles,CA,90027
9630,1850 Midvale Avenue Apt #7,Los Angeles,CA,90025
9633,3335 Rowena Avenue Apt #9,Los Angeles,CA,90027
9634,1559 Winona Blvd Apt #2A,Los Angeles,CA,90027
9648,1553 E 50Th Street,Los Angeles,CA,90011
9649,434 E Adams Blvd,Los Angeles,CA,90011
9650,2130 Sawtelle Blvd Suite #207,Los Angeles,CA,90025
9651,2822 St George Street,Los Angeles,CA,90027
9654,5261 Hollywood Blvd,Los Angeles,CA,90027
9655,4470 W Sunset Blvd Suite #107,Los Angeles,CA,90027
9660,12115 Santa Monica Blvd,West Los Angeles,CA,90025
9661,5217 Hollywood Blvd Apt #101,Los Angeles,CA,90027
9667,1741 Colby Avenue Apt #201,Los Angeles,CA,90025
9668,2006 N Kenmore Avenue,Los Angeles,CA,90027
9671,5324 Morgan Avenue Apt #581,Los Angeles,CA,90011
9672,1900 N Kenmore Avenue,Los Angeles,CA,90027
9676,3405 S San Pedro Street #7,Los Angeles,CA,90011
9685,2038 N Hoover Street #2,Los Angeles,CA,90027
9690,1310 S Barrington Avenue Apt #2,Los Angeles,CA,90025
9693,1991 Palmerston Place,Los Angeles,CA,90027
9694,1633 S Bentley Avenue #105,Los Angeles,CA,90025
9697,10700 Santa Monica Blvd Unit #212,Los Angeles,CA,90025
9700,2046 Hillhurst Avenue #36,Los Angeles,CA,90027
9707,1657 1/2 Lyman Place,Los Angeles,CA,90027
9708,2089 Westwood Blvd,Los Angeles,CA,90025
9709,4102 Tracy Street,Los Angeles,CA,90027
9710,4569 Valley Blvd,Los Angeles,CA,90032
9729,2143 S Sepulveda Blvd Suite #300,Los Angeles,CA,90025
9733,3423 Chadwick Drive,Los Angeles,CA,90032
9744,5118 De Longpre Avenue #314,Los Angeles,CA,90027
9746,4569 Valley Blvd,Los Angeles,CA,90032
9748,1949 Westwood Blvd #2,Los Angeles,CA,90025
9750,11766 Wilshire Blvd Floor #9Th,Los Angeles,CA,90025
9753,2611 N Vermont Avenue,Los Angeles,CA,90027
9754,1038 1/2 E 33Rd Street,Los Angeles,CA,90011
9755,678 E 51St Street,Los Angeles,CA,90011
9762,5324 Morgan Avenue Apt #581,Los Angeles,CA,90011
9766,1560 N Hobart Blvd Unit #3,Los Angeles,CA,90027
9770,1630 S Bentley Avenue Unit #305,Los Angeles,CA,90025
9771,12400 Wilshire Blvd Suite #1440,Los Angeles,CA,90025
9772,5419 Hollywood Blvd #C-142,Los Angeles,CA,90027
9773,1626 N Harvard Blvd #404,Los Angeles,CA,90027
9774,1439 Armacost Avenue,Los Angeles,CA,90025
9776,11514 Santa Monica Blvd,Los Angeles,CA,90025
9777,1915 Malcolm Avenue Suite #302,Los Angeles,CA,90025
9778,12100 Wilshire Blvd Suite #1400,Los Angeles,CA,90025
9781,11600 Wilshire Blvd #316,Los Angeles,CA,90025
9786,3818 Los Feliz Blvd,Los Angeles,CA,90027
9791,1740 S Carmelina Avenue,Los Angeles,CA,90025
9794,4905 Huntington Drive N Suite #A,Los Angeles,CA,90032
9795,12304 Santa Monica Blvd #300,Los Angeles,CA,90025
9797,1620 1/2 Rodney Drive,Los Angeles,CA,90027
9800,5400 Avalon Blvd,Los Angeles,CA,90011
9801,4550 Hollywood Blvd,Los Angeles,CA,90027
9803,975 E 31St Street,Los Angeles,CA,90011
9804,1866 Greenfield Unit #203,Los Angeles,CA,90025
9805,4027 Holly Knoll Drive,Los Angeles,CA,90027
9806,1916 Malcolm Avenue,Los Angeles,CA,90025
9807,5365 Almont Street,Los Angeles,CA,90032
9808,4710 Norelle Street,Los Angeles,CA,90032
9810,1941 Comstock Avenue,Los Angeles,CA,90025
9815,363 E 36Th Street,Los Angeles,CA,90011
9821,1760 N Vermont Avenue,Los Angeles,CA,90027
9826,1805 N Kingsley Drive #111,Los Angeles,CA,90027
9827,1911 Fairburn Avenue,Los Angeles,CA,90025
9828,1524 N Hobart Blvd,Los Angeles,CA,90027
9829,1849 Sawtelle Blvd Suite #680,Los Angeles,CA,90025
9830,4209 Woodlawn Avenue,Los Angeles,CA,90011
9831,4953 S Central Avenue,Los Angeles,CA,90011
9832,1868 Benecia Avenue,Los Angeles,CA,90025
9833,1856 N Kingsley Drive,Los Angeles,CA,90027
9834,11030 Santa Monica Blvd #207,Los Angeles,CA,90025
9835,4364 S Central Avenue,Los Angeles,CA,90011
9836,331 E 48Th Street,Los Angeles,CA,90011
9837,1644 N Kingsley Drive #B,Los Angeles,CA,90027
9838,4848 Hollywood Blvd,Los Angeles,CA,90027
9839,1887 Greenfield #106,Los Angeles,CA,90025
9840,4427 Avalon Blvd,Los Angeles,CA,90011
9842,1824 S Barrington Avenue,Los Angeles,CA,90025
9844,4407 Prospect Avenue,Los Angeles,CA,90027
9846,805 E 47Th Street,Los Angeles,CA,90011
9847,4372 Huntington Drive S,Los Angeles,CA,90032
9848,5326 Avalon Blvd #A,Los Angeles,CA,90011
9849,986 E 32Nd Street,Los Angeles,CA,90011
9852,1932 Overland Avenue #203,Los Angeles,CA,90025
9853,1316 Barry Avenue #6,Los Angeles,CA,90025
9854,3159 Waverly Drive,Los Angeles,CA,90027
9856,2829 Glendower Avenue,Los Angeles,CA,90027
9857,3120 N Eastern Avenue,Los Angeles,CA,90032
9858,4507 Valley Blvd,Los Angeles,CA,90032
9861,5168 Huntington Drive S,Los Angeles,CA,90032
9863,3301 Maple Avenue Unit #B,Los Angeles,CA,90011
9865,2020 Hooper Avenue,Los Angeles,CA,90011
9867,12222 Wilshire Blvd #102,Los Angeles,CA,90025
9868,2110 N Almadale Avenue,Los Angeles,CA,90032
9869,3732 Effingham Place,Los Angeles,CA,90027
9870,2039 Greenfield Avenue,Los Angeles,CA,90025
9871,1311 Federal Avenue,Los Angeles,CA,90025
9872,2050 S Bundy Drive #268,Los Angeles,CA,90025
9873,1343 S Carmelina Avenue,Los Angeles,CA,90025
9874,1414 Greenfield Avenue,Los Angeles,CA,90025
9875,1222 S Westgate Avenue #302,Los Angeles,CA,90025
9876,1447 E 43Rd Street,Los Angeles,CA,90011
9880,11766 Wilshire Blvd #1700,Los Angeles,CA,90025
9881,4610 Valley Blvd Unit #B,Los Angeles,CA,90032
9893,1352 E 21St Street,Los Angeles,CA,90011
9894,1964 N Alexandria Avenue,Los Angeles,CA,90027
9896,11740 Wilshire Blvd Suite #A2501,Los Angeles,CA,90025
9897,2410 N Vermont Avenue,Los Angeles,CA,90027
9898,111 E 32Nd Street,Los Angeles,CA,90011
9904,10474 Santa Monica Blvd Suite #200,Los Angeles,CA,90025
9905,4477 Hollywood Blvd,Los Angeles,CA,90027
9909,10307 Missouri Avenue #102,Los Angeles,CA,90025
9917,639 E 28Th Street,Los Angeles,CA,90011
9920,11870 Santa Monica Blvd #106-530,Los Angeles,CA,90025
9922,2001 S Barrington Avenue #219,Los Angeles,CA,90025
9923,11827 Santa Monica Blvd,Los Angeles,CA,90025
9924,4123 Raynol Street,Los Angeles,CA,90032
9925,1909 Westholme Avenue,Los Angeles,CA,90025
9927,11870 Santa Monica Blvd Suite #106,Los Angeles,CA,90025
9928,1620 E 25Th Street,Los Angeles,CA,90011
9929,1415 N Hobart Blvd,Los Angeles,CA,90027
9930,2068 Hillhurst Avenue,Los Angeles,CA,90027
9931,4220 Guardia Avenue,Los Angeles,CA,90032
9933,2007 Kerwood Avenue,Los Angeles,CA,90025
9935,4730 Hollywood Blvd,Los Angeles,CA,90027
9936,11967 Walnut Lane #4,Los Angeles,CA,90025
9938,430 E Vernon Avenue Unit #B,Los Angeles,CA,90011
9939,1128 E 41St Street,Los Angeles,CA,90011
9940,1626 N Harvard Blvd #309,Los Angeles,CA,90027
9941,19175 S Central Avenue #5,Los Angeles,CA,90011
9942,2001 S Barrington Avenue,West Los Angeles,CA,90025
9943,1712 N Kingsley Drive #218,Los Angeles,CA,90027
9944,175 E 49Th Street,Los Angeles,CA,90011
9945,925 E 27Th Street,Los Angeles,CA,90011
9946,11964 Wilshire Blvd,Los Angeles,CA,90025
9948,3777 Tracy Street,Los Angeles,CA,90027
9952,1262 S Barrington Avenue #108,Los Angeles,CA,90025
9954,5151 Hollywood Blvd,Los Angeles,CA,90027
9955,1325 Amherst Avenue Unit #1,Los Angeles,CA,90025
9957,11970 Wilshire Blvd,Los Angeles,CA,90025
9958,2107 S Los Angeles Street,Los Angeles,CA,90011
9960,4712 Franklin Avenue,Los Angeles,CA,90027
9961,1700 Sawtelle Blvd Penthouse #21,Los Angeles,CA,90025
9962,1920 N Normandie Avenue,Los Angeles,CA,90027
9963,11850 Wilshire Blvd #201,Los Angeles,CA,90025
9964,4022 Collis Avenue,Los Angeles,CA,90032
9966,1923 1/2 Westwood Blvd Unit #2,Los Angeles,CA,90025
9967,940 E 41St Street,Los Angeles,CA,90011
9968,1868 N Western Avenue,Los Angeles,CA,90027
9969,1840 Camden Avenue #204,Los Angeles,CA,90025
9970,3907 Franklin Avenue,Los Angeles,CA,90027
9971,1546 N Commonwealth Avenue,Los Angeles,CA,90027
9972,4608 Abner Street,Los Angeles,CA,90032
9973,3910 Cumberland Avenue,Los Angeles,CA,90027
9974,3249 N Eastern Avenue,Los Angeles,CA,90032
9975,4301 Avocado Street,Los Angeles,CA,90027
9976,5585 Huntington Drive N Plaza,Los Angeles,CA,90032
9977,12424 Wilshire Blvd Suite #750,Los Angeles,CA,90025
9979,3723 Tracy Street #5,Los Angeles,CA,90027
9980,1551 N Vermont Avenue Unit #2,Los Angeles,CA,90027
9981,2600 Forest Park Drive,Los Angeles,CA,90032
9982,4201 Tracy Street,Los Angeles,CA,90027
9983,1965 Rodney Drive #309,Los Angeles,CA,90027
9984,128 E 54Th Street,Los Angeles,CA,90011
9985,453 E 43Rd Place,Los Angeles,CA,90011
9986,4043 Monterey Road,Los Angeles,CA,90032
9989,1854 Talmadge Street,Los Angeles,CA,90027
9990,12121 Wilshire Blvd Suite #1350,Los Angeles,CA,90025
9992,5135 W Sunset Blvd,Los Angeles,CA,90027
9993,512 E 35Th Street,Los Angeles,CA,90011
9995,11859 Wilshire Blvd,Los Angeles,CA,90025
9996,1953 1/2 Hillhurst Avenue,Los Angeles,CA,90027
9997,1916 Glendon Avenue #2,Los Angeles,CA,90025
9998,E 229-235 1/2 30Th Street,Los Angeles,CA,90011
10000,626 E 27Th Street,Los Angeles,CA,90011
10002,5153 W Sunset Blvd Unit #A,Los Angeles,CA,90027
10003,1558 N Commonwealth Avenue Unit #6,Los Angeles,CA,90027
10004,1651 Camden Avenue,Los Angeles,CA,90025
10007,4319 Prospect Avenue,Los Angeles,CA,90027
10011,1819 N New Hampshire Avenue,Los Angeles,CA,90027
10012,5401 1/2 Hollywood Blvd,Los Angeles,CA,90027
10013,4230 Los Feliz Blvd,Los Angeles,CA,90027
10015,2152 Westwood Blvd,Los Angeles,CA,90025
10016,5301 W Sunset Blvd Unit #11,Los Angeles,CA,90027
10017,4523 Huntington Drive N,Los Angeles,CA,90032
10018,4821 1/2 Compton Avenue,Los Angeles,CA,90011
10020,2614 S San Pedro Street,Los Angeles,CA,90011
10021,1517 S Bentley Avenue #305,Los Angeles,CA,90025
10022,4616 Hollywood Blvd,Los Angeles,CA,90027
10023,2001 S Barrington Avenue Suite #215,Los Angeles,CA,90025
10026,1919 S San Pedro Street,Los Angeles,CA,90011
10027,2801 Griffith Park Blvd,Los Angeles,CA,90027
10031,11605 Missouri Avenue,Los Angeles,CA,90025
10033,2040 Cotner Avenue,Los Angeles,CA,90025
10035,4637 Maubert Avenue,Los Angeles,CA,90027
10037,602 E 21St Street,Los Angeles,CA,90011
10038,4818 Huntington Drive S,Los Angeles,CA,90032
10039,2008 Hyperion Avenue,Los Angeles,CA,90027
10040,5373 Alhambra Avenue,Los Angeles,CA,90032
10041,3118 Warwick Avenue,Los Angeles,CA,90032
10044,4023 Wall Street,Los Angeles,CA,90011
10046,1170 E 25Th Street,Los Angeles,CA,90011
10047,2714 Griffith Park Blvd,Los Angeles,CA,90027
10049,11755 Wilshire Blvd Suite #1250,Los Angeles,CA,90025
10050,3611 El Sereno Avenue,Los Angeles,CA,90032
10051,1269 E 47Th Street,Los Angeles,CA,90011
10053,1926 Glendon Avenue Unit #3,Los Angeles,CA,90025
10054,1386 E 57Th Street,Los Angeles,CA,90011
10056,11755 Wilshire Blvd Suite #1250,Los Angeles,CA,90025
10060,12401 Wilshire Blvd Suite #303,Los Angeles,CA,90025
10061,11755 Wilshire Blvd Suite #1250,Los Angeles,CA,90025
10062,1517 N Harvard Blvd #10,Los Angeles,CA,90027
10064,3106 N Eastern Avenue,Los Angeles,CA,90032
10066,1910 Pelham Avenue #2,Los Angeles,CA,90025
10067,1300 N Vermont Avenue Suite #600,Los Angeles,CA,90027
10069,307 E Jefferson Blvd,Los Angeles,CA,90011
10070,1742 Stoner Avenue #2,Los Angeles,CA,90025
10072,1943 1/2 N Vermont Avenue,Los Angeles,CA,90027
10073,400 E Adams Blvd Suite #A,Los Angeles,CA,90011
10075,1132 1/2 E 40Th Place,Los Angeles,CA,90011
10076,12304 Santa Monica Blvd #215A,Los Angeles,CA,90025
10077,2606 Paloma Street,Los Angeles,CA,90011
10078,138 E 45Th Street,Los Angeles,CA,90011
10083,2021 Prosser Avenue,Los Angeles,CA,90025
10084,11050 Santa Monica Blvd Floor #3Rd,Los Angeles,CA,90025
10085,2019 Malcolm Avenue,Los Angeles,CA,90025
10086,2001 S Barrington Avenue Suite #203,Los Angeles,CA,90025
10087,706 E 32Nd Street,Los Angeles,CA,90011
10088,2800 Hooper Avenue,Los Angeles,CA,90011
10089,11514 Rochester Avenue #202,Los Angeles,CA,90025
10090,11620 Wilshire Blvd Floor #10,Los Angeles,CA,90025
10091,12021 Wilshire Blvd Unit #223,Los Angeles,CA,90025
10092,4203 Cumberland Avenue,Los Angeles,CA,90027
10093,1914 Selby Avenue Unit #402,Los Angeles,CA,90025
10094,2900 S Central Avenue,Los Angeles,CA,90011
10095,1730 N Western Avenue,Los Angeles,CA,90027
10096,1961 S Beverly Glen Blvd,Los Angeles,CA,90025
10097,428 E 40Th Place,Los Angeles,CA,90011
10098,11620 Wilshire Blvd #580,Los Angeles,CA,90025
10099,4063 Adair Street,Los Angeles,CA,90011
10100,4953 S Central Avenue,Los Angeles,CA,90011
10101,1433 E Adams Blvd,Los Angeles,CA,90011
10102,10350 Santa Monica Blvd #310,Los Angeles,CA,90025
10103,4232 1/2 Wall Street,Los Angeles,CA,90011
10104,1640 S Sepulveda Blvd Suite #300,Los Angeles,CA,90025
10105,1565 E 23Rd Street,Los Angeles,CA,90011
10106,11628 Santa Monica Blvd Suite #200,Los Angeles,CA,90025
10107,1600 E 25Th Street,Los Angeles,CA,90011
10108,10323 Santa Monica Blvd Unit #101,Los Angeles,CA,90025
10109,905 E 54Th Street,Los Angeles,CA,90011
10110,11150 Santa Monica Blvd #1200,Los Angeles,CA,90025
10111,1601 Sawtelle Blvd #100,Los Angeles,CA,90025
10112,12121 Wilshire Blvd Unit #102,Los Angeles,CA,90025
10113,2108 Maple Avenue #106,Los Angeles,CA,90011
10114,1437 E 20Th Street,Los Angeles,CA,90011
10115,5016 S Central Avenue,Los Angeles,CA,90011
10116,614 E 35Th Street,Los Angeles,CA,90011
10117,2040 Manning Avenue,Los Angeles,CA,90025
10118,5118 De Longpre Avenue #116,Los Angeles,CA,90027
10119,12304 Santa Monica Blvd Suite #215A,Los Angeles,CA,90025
10120,1814 Pandora Avenue,Los Angeles,CA,90025
10121,423 E 31St Street,Los Angeles,CA,90011
10122,1338 E 46Th Street,Los Angeles,CA,90011
10123,12424 Wilshire Blvd Suite #1130,Los Angeles,CA,90025
10124,11281 Santa Monica Blvd,Los Angeles,CA,90025
10125,795 E 42Nd Place,Los Angeles,CA,90011
10126,1364 1/4 E 42Nd Street,Los Angeles,CA,90011
10127,2641 Nevin Avenue,Los Angeles,CA,90011
10128,12409 Texas Avenue #5 6,Los Angeles,CA,90025
10129,2000 S Sepulveda Blvd,Los Angeles,CA,90025
10130,4007 Mckinley Avenue,Los Angeles,CA,90011
10131,11628 Santa Monica Blvd Suite #200,Los Angeles,CA,90025
10132,11819 Wilshire Blvd #209,Los Angeles,CA,90025
10133,1815 Purdue Avenue #304,Los Angeles,CA,90025
10134,2213 S Central Avenue,Los Angeles,CA,90011
10135,12304 Santa Monica Blvd Suite #118,Los Angeles,CA,90025
10136,426 E 20Th Street,Los Angeles,CA,90011
10137,1959 Benecia Avenue,Los Angeles,CA,90025
10138,12021 Wilshire Blvd Suite #282,Los Angeles,CA,90025
10139,11861 Texas Avenue,Los Angeles,CA,90025
10140,5709 Hooper Avenue,Los Angeles,CA,90011
10141,4625 Hooper Avenue,Los Angeles,CA,90011
10142,1612 1/2 E 33Rd Street,Los Angeles,CA,90011
10143,11819 Wilshire Blvd #209,Los Angeles,CA,90025
10144,972 E 46Th Street,Los Angeles,CA,90011
10145,36 Trinity Street,Los Angeles,CA,90011
10146,12201 Wilshire Blvd #B,Los Angeles,CA,90025
10147,1823 Sawtelle Blvd #7,Los Angeles,CA,90025
10148,4220 S Central Avenue,Los Angeles,CA,90011
10149,11828 La Grange Avenue Suite #150,Los Angeles,CA,90025
10150,1935 N Oxford Avenue,Los Angeles,CA,90027
10151,11669 Santa Monica Blvd #210,Los Angeles,CA,90025
10152,4626 Avalon Blvd,Los Angeles,CA,90011
10153,1436 E 53Rd Street,Los Angeles,CA,90011
10154,3955 Clayton Avenue,Los Angeles,CA,90027
10155,4852 1/2 Hollywood Blvd,Los Angeles,CA,90027
10156,11620 Wilshire Blvd #900,Los Angeles,CA,90025
10157,2050 S Bundy Drive,Los Angeles,CA,90025
10158,123 E 32Nd Street,Los Angeles,CA,90011
10159,1546 E 25Th Street,Los Angeles,CA,90011
10160,1640 S Sepulveda Blvd Suite #300,Los Angeles,CA,90025
10161,2410 Hyperion Avenue,Los Angeles,CA,90027
10162,11050 Santa Monica Blvd Floor #3,Los Angeles,CA,90025
10163,12100 Wilshire Blvd Suite #800,Los Angeles,CA,90025
10164,4325 Cedarhurst Circle,Los Angeles,CA,90027
10165,5602 S Central Avenue Unit #C,Los Angeles,CA,90011
10166,1216 S Saltair Avenue #102,Los Angeles,CA,90025
10167,1820 Veteran Avenue,Los Angeles,CA,90025
10168,12100 Wilshire Blvd Suite #1150,Los Angeles,CA,90025
10169,11601 Wilshire Blvd Suite #500,Los Angeles,CA,90025
10170,12424 Wilshire Blvd Suite #710,Los Angeles,CA,90025
10171,11111 Santa Monica Blvd Suite #1850,Los Angeles,CA,90025
10176,4651 Huntington Drive S #A,Los Angeles,CA,90032
10178,1530 S Centinela Avenue Suite #303,Los Angeles,CA,90025
10179,4411 Los Feliz Blvd #407,Los Angeles,CA,90027
10182,1309 Amherst Avenue #206,Los Angeles,CA,90025
10185,1616 N Normandie Avenue,Los Angeles,CA,90027
10197,1300 S Barrington Avenue #7,Los Angeles,CA,90025
10199,4523 1/2 Ambrose Avenue,Los Angeles,CA,90027
10200,10436 Santa Monica Blvd Unit #3030,Los Angeles,CA,90025
10203,2148 Federal Avenue Suite #C,Los Angeles,CA,90025
10206,806 E 31St Street,Los Angeles,CA,90011
10207,2001 S Barrington Avenue,Los Angeles,CA,90025
10209,11645 Wilshire Blvd Suite #800,Los Angeles,CA,90025
10210,2309 S Central Avenue,Los Angeles,CA,90011
10211,1817 Corinth Avenue #4,Los Angeles,CA,90025
10212,5430 Norwich Avenue,Los Angeles,CA,90032
10215,2018 Trinity Street,Los Angeles,CA,90011
10217,2317 Maple Avenue,Los Angeles,CA,90011
10218,1917 Parnell Avenue,Los Angeles,CA,90025
10219,11828 La Grange Avenue,Los Angeles,CA,90025
10220,940 E 29Th Street #208,Los Angeles,CA,90011
10221,1416 N Kenmore Avenue #2,Los Angeles,CA,90027
10222,4861 Navarro Street,Los Angeles,CA,90032
10223,1657 Colby Avenue,Los Angeles,CA,90025
10224,1348 N Harvard Blvd,Los Angeles,CA,90027
10225,2070 N Commonwealth Avenue,Los Angeles,CA,90027
10226,5207 Huntington Drive N,Los Angeles,CA,90032
10227,10700 Santa Monica Blvd #203,Los Angeles,CA,90025
10228,829 E Vernon Avenue,Los Angeles,CA,90011
10229,726 E 46Th Street,Los Angeles,CA,90011
10230,1977 S Los Angeles Street,Los Angeles,CA,90011
10231,923 E 33Rd Street,Los Angeles,CA,90011
10232,4623 Prospect Avenue #1,Los Angeles,CA,90027
10233,3723 Trinity Street,Los Angeles,CA,90011
10234,161 E Jefferson Blvd,Los Angeles,CA,90011
10235,11704 Wilshire Blvd Suite #245,Los Angeles,CA,90025
10236,2121 S San Pedro Street Suite #B,Los Angeles,CA,90011
10237,642 E 46Th Street,Los Angeles,CA,90011
10238,12121 Wilshire Blvd Suite #102,Los Angeles,CA,90025
10239,901 E 31St Street Suite #300,Los Angeles,CA,90011
10240,11601 Santa Monica Blvd,Los Angeles,CA,90025
10241,3712 1/4 Maple Avenue,Los Angeles,CA,90011
10242,3318 Fithian Avenue,Los Angeles,CA,90032
10243,1230 Wellesley Avenue,Los Angeles,CA,90025
10244,2643 Nevin Avenue,Los Angeles,CA,90011
10245,3915 Tampico Avenue,Los Angeles,CA,90032
10246,1920 Hillhurst Avenue #1148,Los Angeles,CA,90027
10247,10309 Santa Monica Blvd Suite #300,Los Angeles,CA,90025
10248,465 E 32Nd Street,Los Angeles,CA,90011
10249,5139 Avalon Blvd,Los Angeles,CA,90011
10250,12021 Wilshire Blvd Suite #731,Los Angeles,CA,90025
10251,12121 Rochester Avenue,Los Angeles,CA,90025
10252,5217 Hollywood Blvd #101,Los Angeles,CA,90027
10253,4160 Hooper Avenue,Los Angeles,CA,90011
10254,11620 Wilshire Blvd,Los Angeles,CA,90025
10255,1168 E 42Nd Place,Los Angeles,CA,90011
10256,11050 Santa Monica Blvd Floor #3Rd,Los Angeles,CA,90025
10257,5332 Russell Avenue Unit #319,Los Angeles,CA,90027
10258,4220 S Central Avenue,Los Angeles,CA,90011
10259,4448 Ambrose Avenue,Los Angeles,CA,90027
10260,11859 Wilshire Blvd,Los Angeles,CA,90025
10261,1559 E Vernon Avenue,Los Angeles,CA,90011
10262,1538 Sawtelle Blvd,Los Angeles,CA,90025
10263,5222 Chester Street,Los Angeles,CA,90032
10264,12115 Santa Monica Blvd,Los Angeles,CA,90025
10265,11080 La Grange Avenue,Los Angeles,CA,90025
10266,1817 Malcolm Avenue Unit #101,Los Angeles,CA,90025
10267,1560 1/2 E 33Rd Street,Los Angeles,CA,90011
10268,1835 Camden Avenue #308,Los Angeles,CA,90025
10269,3915 Tampico Avenue,Los Angeles,CA,90032
10270,11111 Santa Monica Blvd Suite #800,Los Angeles,CA,90025
10271,1011 E Adams Blvd Unit #501,Los Angeles,CA,90011
10272,11511 Rochester Avenue #19,Los Angeles,CA,90025
10273,3610 Maple Avenue,Los Angeles,CA,90011
10274,11828 La Grange Avenue #200,Los Angeles,CA,90025
10275,422 E 56Th Street,Los Angeles,CA,90011
10276,1733 N Serrano Avenue #6,Los Angeles,CA,90027
10277,202 E Vernon Avenue,Los Angeles,CA,90011
10278,4470 W Sunset Blvd #106,Los Angeles,CA,90027
10279,3100 N Eastern Avenue,Los Angeles,CA,90032
10280,4301 Price Street,Los Angeles,CA,90027
10282,1108 E 28Th Street,Los Angeles,CA,90011
10284,12016 Wilshire Blvd #4,Los Angeles,CA,90025
10287,2811 Ballard Street,Los Angeles,CA,90032
10289,1300 N Vermont Avenue,Los Angeles,CA,90027
10290,1600 N Hobart Blvd #8,Los Angeles,CA,90027
10291,5401 Hollywood Blvd,Los Angeles,CA,90027
10292,1519 Stoner Avenue #8,Los Angeles,CA,90025
10293,5048 Huntington Drive S,Los Angeles,CA,90032
10294,1929 S San Pedro Street,Los Angeles,CA,90011
10295,2029 Butler Avenue,Los Angeles,CA,90025
10299,1921 Lansdowne Avenue,Los Angeles,CA,90032
10300,1907 Comstock Avenue,Los Angeles,CA,90025
10301,5411 Valley Blvd,Los Angeles,CA,90032
10302,1732 1/4 N Mariposa Avenue,Los Angeles,CA,90027
10304,5639 Berkshire Drive,Los Angeles,CA,90032
10305,5555 Alhambra Avenue,Los Angeles,CA,90032
10307,2102 S Central Avenue,Los Angeles,CA,90011
10308,10349 Mississippi Avenue,Los Angeles,CA,90025
10311,4212 Camero Avenue,Los Angeles,CA,90027
10312,4446 Finley Avenue #202,Los Angeles,CA,90027
10313,2001 S Barrington Avenue #212,Los Angeles,CA,90025
10314,12121 Wilshire Blvd Suite #102-4,Los Angeles,CA,90025
10315,1547 N Kenmore Avenue,Los Angeles,CA,90027
10316,1900 N Oxford Avenue,Los Angeles,CA,90027
10318,1630 Cotner Avenue,Los Angeles,CA,90025
10319,1305 Manzanita Street Unit #5,Los Angeles,CA,90027
10320,3916 Clayton Avenue,Los Angeles,CA,90027
10321,12041 Wilshire Blvd Suite #8-10,Los Angeles,CA,90025
10322,3766 Wall Street,Los Angeles,CA,90011
10323,4551 1/4 Kingswell Avenue,Los Angeles,CA,90027
10324,5229 W Sunset Blvd,Los Angeles,CA,90027
10325,3514 Amethyst Street,Los Angeles,CA,90032
10326,2402 1/2 Maple Avenue,Los Angeles,CA,90011
10327,4601 Los Feliz Blvd Unit #2,Los Angeles,CA,90027
10328,3771 Wall Street,Los Angeles,CA,90011
10329,2101 N Almadale Avenue,Los Angeles,CA,90032
10330,4979 Huntington Drive N,Los Angeles,CA,90032
10331,403 E 47Th Street,Los Angeles,CA,90011
10332,1917 Rodney Drive,Los Angeles,CA,90027
10333,1920 Hillhurst Avenue Suite #131,Los Angeles,CA,90027
10334,2042 Westwood Blvd,Los Angeles,CA,90025
10335,12424 Wilshire Blvd Suite #710,Los Angeles,CA,90025
10336,4041 1/2 Los Feliz Blvd,Los Angeles,CA,90027
10337,5167 Almont Street,Los Angeles,CA,90032
10338,1011 E Adams Blvd Suite #501,Los Angeles,CA,90011
10339,11645 Wilshire Blvd Suite #100,Los Angeles,CA,90025
10340,1315 E 21St Street #302,Los Angeles,CA,90011
10341,3043 Hollister Avenue,Los Angeles,CA,90032
10342,11050 Santa Monica Blvd Floor #3Rd,Los Angeles,CA,90025
10343,5159 Oakland Street,Los Angeles,CA,90032
10344,3318 Fithian Avenue,Los Angeles,CA,90032
10345,4388 Camero Avenue,Los Angeles,CA,90027
10346,307 E Jefferson Blvd #129,Los Angeles,CA,90011
10347,1810 Federal Avenue #1,Los Angeles,CA,90025
10348,1888 Greenfield Avenue #103,Los Angeles,CA,90025
10349,12100 Wilshire Blvd,Los Angeles,CA,90025
10350,12121 Rochester Avenue,Los Angeles,CA,90025
10351,1544 Camden Avenue Unit #301,Los Angeles,CA,90025
10352,794 E 43Rd Place,Los Angeles,CA,90011
10353,5603 Huntington Drive N,Los Angeles,CA,90032
10354,2641 Nevin Avenue,Los Angeles,CA,90011
10355,162 E 36Th Place,Los Angeles,CA,90011
10356,1178 E 41St Street,Los Angeles,CA,90011
10357,11150 Santa Monica Blvd #1200,Los Angeles,CA,90025
10358,1441 E 53Rd Street,Los Angeles,CA,90011
10359,3949 Los Feliz Blvd #303,Los Angeles,CA,90027
10360,1616 S Bundy Drive,Los Angeles,CA,90025
10361,5701 S Central Avenue Unit #B,Los Angeles,CA,90011
10362,1726 N Kingsley Drive #212,Los Angeles,CA,90027
10363,3413 Edloft Avenue,Los Angeles,CA,90032
10364,1525 N Kenmore Avenue Unit #202,Los Angeles,CA,90027
10365,5167 W Sunset Blvd,Los Angeles,CA,90027
10366,10323 Santa Monica Blvd Suite #109,Los Angeles,CA,90025
10367,4637 1/2 Los Feliz Blvd,Los Angeles,CA,90027
10368,2611 1/2 Hyperion Avenue,Los Angeles,CA,90027
10369,1950 Sawtelle Blvd Suite #183,Los Angeles,CA,90025
10370,543 E 35Th Street,Los Angeles,CA,90011
10371,1735 N Kingsley Drive,Los Angeles,CA,90027
10372,438 E 20Th Street #3,Los Angeles,CA,90011
10373,1300 N Vermont Avenue Suite #610,Los Angeles,CA,90027
10374,1933 Rodney Drive,Los Angeles,CA,90027
10375,2021 Pontius Avenue,Los Angeles,CA,90025
10376,11766 Wilshire Blvd Floor #9,Los Angeles,CA,90025
10377,1805 N New Hampshire Avenue ##4,Los Angeles,CA,90027
10378,1903 Hyperion Avenue,Los Angeles,CA,90027
10379,4651 Huntington Drive S,Los Angeles,CA,90032
10380,1137 E 32Nd Street,Los Angeles,CA,90011
10381,5018 La Calandria Way,Los Angeles,CA,90032
10382,1939 S San Pedro Street,Los Angeles,CA,90011
10383,307 E Jefferson Blvd #332,Los Angeles,CA,90011
10384,307 E Jefferson Blvd #301-303,Los Angeles,CA,90011
10385,1273 E Adams Blvd,Los Angeles,CA,90011
10386,4615 Kingswell Avenue,Los Angeles,CA,90027
10387,10642 Santa Monica Blvd Suite #200,Los Angeles,CA,90025
10388,2820 Griffith Park Blvd #9,Los Angeles,CA,90027
10389,4726 Klamath Place,Los Angeles,CA,90032
10390,5301 W Sunset Blvd Suite #6,Los Angeles,CA,90027
10391,10700 Santa Monica Blvd Suite #309,Los Angeles,CA,90025
10392,641 E 27Th Street,Los Angeles,CA,90011
10393,2224 Compton Avenue,Los Angeles,CA,90011
10394,4330 Honduras Street,Los Angeles,CA,90011
10395,1457 Armacost Avenue #105,Los Angeles,CA,90025
10396,11755 Wilshire Blvd Suite #1660,Los Angeles,CA,90025
10397,2033 Butler Avenue,Los Angeles,CA,90025
10398,11601 Wilshire Blvd Suite #500,Los Angeles,CA,90025
10399,1870 Barry Avenue,Los Angeles,CA,90025
10400,1331 Amherst Avenue #202,Los Angeles,CA,90025
10401,12021 Wilshire Blvd Suite #866,Los Angeles,CA,90025
10402,10642 Santa Monica Blvd Suite #101,Los Angeles,CA,90025
10403,1836 Parnell Avenue #100,Los Angeles,CA,90025
10404,4629 Clarissa Avenue,Los Angeles,CA,90027
10405,3001 S San Pedro Street,Los Angeles,CA,90011
10406,831 E 28Th Street,Los Angeles,CA,90011
10407,11700 Santa Monica Blvd,Los Angeles,CA,90025
10408,4110 Wall Street,Los Angeles,CA,90011
10409,1600 N Vermont Avenue,Los Angeles,CA,90027
10410,11111 Santa Monica Blvd Suite #1700,Los Angeles,CA,90025
10411,5346 Huntington Drive S,Los Angeles,CA,90032
10412,11645 Wilshire Blvd Suite #770,Los Angeles,CA,90025
10413,130 E Jefferson Blvd,Los Angeles,CA,90011
10414,4532 Avocado Street,Los Angeles,CA,90027
10415,11601 Wilshire Blvd Suite #500,Los Angeles,CA,90025
10416,2001 S Barrington Avenue,Los Angeles,CA,90025
10417,4905 Hollywood Blvd,Los Angeles,CA,90027
10418,2729 Hooper Avenue,Los Angeles,CA,90011
10419,1913 Stoner Avenue,Los Angeles,CA,90025
10420,11111 Santa Monica Blvd,Los Angeles,CA,90025
10421,1920 Hillhurst Avenue #V912,Los Angeles,CA,90027
10422,1636 Sawtelle Blvd,Los Angeles,CA,90025
10423,153 E 58Th Street,Los Angeles,CA,90011
10424,4522 Avalon Blvd,Los Angeles,CA,90011
10425,11740 Wilshire Blvd,Los Angeles,CA,90025
10426,11261 Santa Monica Blvd,Los Angeles,CA,90025
10427,4646 Los Feliz Blvd #104,Los Angeles,CA,90027
10428,1213 1/2 E 56Th Street,Los Angeles,CA,90011
10429,12041 Wilshire Blvd Suite #26,Los Angeles,CA,90025
10430,4311 Finley Avenue,Los Angeles,CA,90027
10431,1433 Butler Avenue,Los Angeles,CA,90025
10432,1407 1/2 N Catalina Street,Los Angeles,CA,90027
10433,4010 Los Feliz Blvd #11,Los Angeles,CA,90027
10434,5044 Huntington Drive S Unit #A,Los Angeles,CA,90032
10435,5057 W Sunset Blvd,Los Angeles,CA,90027
10436,2614 S San Pedro Street,Los Angeles,CA,90011
10437,1832 2/5 N Mariposa Avenue,Los Angeles,CA,90027
10438,4159 Franklin Avenue,Los Angeles,CA,90027
10439,11605 Mississippi Avenue,Los Angeles,CA,90025
10440,12304 Santa Monica Blvd Suite #202,Los Angeles,CA,90025
10441,11526 Ohio Avenue #7,Los Angeles,CA,90025
10442,249 E Vernon Avenue,Los Angeles,CA,90011
10443,1327 S Westgate Avenue,Los Angeles,CA,90025
10444,5440 Carlton Way #206,Los Angeles,CA,90027
10445,11111 Santa Monica Blvd Unit #220,Los Angeles,CA,90025
10446,1274 E 55Th Street,Los Angeles,CA,90011
10447,5581 Huntington Drive N,Los Angeles,CA,90032
10448,1525 S Sepulveda Blvd Unit #K,Los Angeles,CA,90025
10449,1804 1/2 Hillhurst Avenue,Los Angeles,CA,90027
10450,1518 Federal Avenue,Los Angeles,CA,90025
10451,2455 Hyperion Avenue,Los Angeles,CA,90027
10452,2414 S San Pedro Street #-A,Los Angeles,CA,90011
10453,331 E 33Rd Street,Los Angeles,CA,90011
10454,12121 Wilshire Blvd Suite #600,Los Angeles,CA,90025
10455,4466 Bowman Blvd,Los Angeles,CA,90032
10456,11766 Wilshire Blvd Floor #9,Los Angeles,CA,90025
10457,1861 Veteran Avenue #101,Los Angeles,CA,90025
10458,12007 Santa Monica Blvd,Los Angeles,CA,90025
10459,11407 Santa Monica Blvd,Los Angeles,CA,90025
10460,3220 S 22 S Compton Avenue,Los Angeles,CA,90011
10461,2706 S Central Avenue,Los Angeles,CA,90011
10462,1757 N Serrano Avenue #304,Los Angeles,CA,90027
10463,4430 Avalon Blvd,Los Angeles,CA,90011
10464,1846 Federal Avenue,Los Angeles,CA,90025
10465,1300 N Vermont Avenue #703A,Los Angeles,CA,90027
10466,5139 1/4 De Longpre Avenue,Los Angeles,CA,90027
10467,11821 Mississippi Avenue,Los Angeles,CA,90025
10468,1317 Talmadge Street,Los Angeles,CA,90027
10469,116 E 32Nd Street,Los Angeles,CA,90011
10470,5801 S Central Avenue Unit #A,Los Angeles,CA,90011
10471,1945 N Berendo Street,Los Angeles,CA,90027
10472,12121 Wilshire Blvd,Los Angeles,CA,90025
10473,2091 Westwood Blvd,Los Angeles,CA,90025
10474,131 E 30Th Street,Los Angeles,CA,90011
10475,4227 Hazel Kirk Drive,Los Angeles,CA,90027
10476,2315 Highbury Avenue,Los Angeles,CA,90032
10477,11075 Santa Monica Blvd,Los Angeles,CA,90025
10478,1888 Greenfield Avenue #107,Los Angeles,CA,90025
10479,2008 Sawtelle Blvd,Los Angeles,CA,90025
10480,3650 1/4 Harriman Avenue,Los Angeles,CA,90032
10481,1350 E 48Th Street,Los Angeles,CA,90011
10482,1885 Veteran Avenue,Los Angeles,CA,90025
10483,4574 Finley Avenue #2,Los Angeles,CA,90027
10484,12012 Wilshire Blvd Suite #106,Los Angeles,CA,90025
10485,5231 1/2 W Sunset Blvd,Los Angeles,CA,90027
10486,1848 N Normandie Avenue #2,Los Angeles,CA,90027
10489,10473 Santa Monica Blvd Unit #202,Los Angeles,CA,90025
10491,922 E 41St Place,Los Angeles,CA,90011
10492,3821 Stockbridge Avenue,Los Angeles,CA,90032
10539,4425 Moonstone Drive,Los Angeles,CA,90032
11742,1716 N Alexandria Avenue,Los Angeles,CA,90027
11975,924 E 41St Place,Los Angeles,CA,90011
12164,5326 Avalon Blvd,Los Angeles,CA,90011
12904,4161 Los Feliz Blvd #83,Los Angeles,CA,90027
13283,1930 1/2 Rodney Drive,Los Angeles,CA,90027
13443,3307 Compton Avenue,Los Angeles,CA,90011
14493,12217 Santa Monica Blvd #208,Los Angeles,CA,90025
14733,5117 Avalon Blvd,Los Angeles,CA,90011
15793,637 1/2 E 28Th Street,Los Angeles,CA,90011
15954,3416 Lifur Avenue,Los Angeles,CA,90032
16585,925 E Vernon Avenue,Los Angeles,CA,90011
18292,12381 Wilshire Blvd Suite #105,Los Angeles,CA,90025
18555,4620 Hollywood Blvd,Los Angeles,CA,90027
19295,4951 W Sunset Blvd,Los Angeles,CA,90027
20390,1255 Federal Avenue Unit #101,Los Angeles,CA,90025
20546,11150 Santa Monica Blvd #700,Los Angeles,CA,90025
20788,3007 S Central Avenue,Los Angeles,CA,90011
20899,11901 Santa Monica Blvd Suite #112,Los Angeles,CA,90025
20946,5135 De Longpre Avenue,Los Angeles,CA,90027
22621,11819 Wilshire Blvd #209,Los Angeles,CA,90025
22634,2121 Beloit Avenue,Los Angeles,CA,90025
23099,1970 N Alexandria Avenue,Los Angeles,CA,90027
23134,4470 W Sunset Blvd Unit #280,Los Angeles,CA,90027
23552,2258 Talmadge Street,Los Angeles,CA,90027
23689,1852 S Sepulveda Blvd,Los Angeles,CA,90025
23730,2615 N Commonwealth Avenue,Los Angeles,CA,90027
24495,12423 Wilshire Blvd #A,Los Angeles,CA,90025
24739,11766 Wilshire Blvd Suite #500,Los Angeles,CA,90025
25917,12401 Wilshire Blvd #303,Los Angeles,CA,90025
26444,2446 Kings Place,Los Angeles,CA,90032
26711,5182 Ithaca Avenue,Los Angeles,CA,90032
26912,4111 S Central Avenue,Los Angeles,CA,90011
27147,1540 E 25Th Street,Los Angeles,CA,90011
27986,10436 Santa Monica Blvd Suite #400,Los Angeles,CA,90025
27988,2001 S Barrington Avenue #318,Los Angeles,CA,90025
27992,11601 Wilshire Blvd #500,Los Angeles,CA,90025
27993,1537 N Serrano Avenue,Los Angeles,CA,90027
27994,471 1/2 E 41St Place,Los Angeles,CA,90011
27995,10361 Mississippi Avenue,Los Angeles,CA,90025
27997,2810 N Eastern Avenue,Los Angeles,CA,90032
27998,1854 Hillhurst Avenue,Los Angeles,CA,90027
28000,3342 Thelma Avenue,Los Angeles,CA,90032
28001,1755 Granville Avenue Apt #18,Los Angeles,CA,90025
28002,11850 Wilshire Blvd ##201,Los Angeles,CA,90025
28003,2057 Dracena Drive Apt #305,Los Angeles,CA,90027
28013,4647 Kingswell Avenue Suite #136,Los Angeles,CA,90027
28016,208 E 31St Street,Los Angeles,CA,90011
28021,1730 Colby Avenue Apt #100,Los Angeles,CA,90025
28025,305 E 36Th Street,Los Angeles,CA,90011
28035,1550 S Bundy Drive #1A,Los Angeles,CA,90025
28037,2837 Hyperion Avenue,Los Angeles,CA,90027
28038,1622 Lyman Place #3,Los Angeles,CA,90027
28041,1511 Pontius Avenue Unit #102,Los Angeles,CA,90025
28042,4440 Finley Avenue Apt #106,Los Angeles,CA,90027
28043,1849 N Ditman Avenue,Los Angeles,CA,90032
28053,12304 Santa Monica Blvd Suite #106,Los Angeles,CA,90025
28055,3818 Carnavon Way,Los Angeles,CA,90027
28056,2007 Sawtelle Blvd Suite #7,Los Angeles,CA,90025
28057,11701 Wilshire Blvd,Los Angeles,CA,90025
28068,1600 S Westgate Avenue Apt #406,Los Angeles,CA,90025
28075,1748 Colby Avenue Unit #201,Los Angeles,CA,90025
28077,4200 Los Feliz Blvd Apt #3,Los Angeles,CA,90027
28079,1537 N Serrano Avenue,Los Angeles,CA,90027
28081,4357 Alpha Street,Los Angeles,CA,90032
28085,5326 Borland Road,Los Angeles,CA,90032
28089,1538 S Carmelina Avenue,Los Angeles,CA,90025
28092,1920 Thayer Avenue,Los Angeles,CA,90025
28093,3320 Lowry Road,Los Angeles,CA,90027
28101,2123 Rodney Drive Apt #306,Los Angeles,CA,90027
28108,10317 Missouri Avenue #5,Los Angeles,CA,90025
28116,1438 N Mariposa Avenue,Los Angeles,CA,90027
28117,4478 W Rose Hill Drive,Los Angeles,CA,90032
28121,1467 Wellesley Avenue,Los Angeles,CA,90025
28122,5609 Mckinley Avenue,Los Angeles,CA,90011
28128,11701 Wilshire Blvd Unit #6,Los Angeles,CA,90025
28129,1582 E 23Rd Street,Los Angeles,CA,90011
28136,4976 Navarro Street,Los Angeles,CA,90032
28147,3901 Los Feliz Blvd #202,Los Angeles,CA,90027
28151,2450 N Catalina Street,Los Angeles,CA,90027
28154,2175 S Beverly Glen Blvd #205,Los Angeles,CA,90025
28155,5040 Huntington Drive S,Los Angeles,CA,90032
28158,1623 N Kingsley Drive,Los Angeles,CA,90027
28159,4429 Prospect Avenue Apt #3,Los Angeles,CA,90027
28160,5424 Carlton Way,Los Angeles,CA,90027
28161,11600 Wilshire Blvd,Los Angeles,CA,90025
28165,2729 Griffith Park Blvd,Los Angeles,CA,90027
28167,11601 Wilshire Blvd Suite #1840,Los Angeles,CA,90025
28171,4947 Ambrose Avenue,Los Angeles,CA,90027
28177,1666 N Vermont Avenue,Los Angeles,CA,90027
28178,1237 Armacost Avenue Apt #4,Los Angeles,CA,90025
28184,11601 Wilshire Blvd Suite #101,Los Angeles,CA,90025
28186,947 1/2 E 43Rd Place,Los Angeles,CA,90011
28188,5317 Russell Avenue Apt #5,Los Angeles,CA,90027
28189,1757 1/2 N Alexandria Avenue,Los Angeles,CA,90027
28190,4361 Multnomah Street,Los Angeles,CA,90032
28195,1990 S Bundy Drive Suite #175,Los Angeles,CA,90025
28199,1975 Dracena Drive,Los Angeles,CA,90027
28200,5117 Oakland Street,Los Angeles,CA,90032
28201,1466 E 46Th Street,Los Angeles,CA,90011
28206,4470 W Sunset Blvd Suite #1310,Los Angeles,CA,90027
28210,12227 Santa Monica Blvd,Los Angeles,CA,90025
28215,11567 Santa Monica Blvd,Los Angeles,CA,90025
28224,5314 Franklin Avenue Apt #20,Los Angeles,CA,90027
28231,874 E 57Th Street,Los Angeles,CA,90011
28235,5112 Hollywood Blvd Suite #110,Los Angeles,CA,90027
28238,1905 Dracena Drive,Los Angeles,CA,90027
28239,2134 Fox Hills Drive,Los Angeles,CA,90025
28244,2001 S Barrington Avenue Suite #114,Los Angeles,CA,90025
28250,12122 Santa Monica Blvd,Los Angeles,CA,90025
28253,2220 Talmadge Street,Los Angeles,CA,90027
28257,2410 Hyperion Avenue Suite #B,Los Angeles,CA,90027
28259,11917 Iowa Avenue,Los Angeles,CA,90025
28266,2001 S Barrington Avenue Suite #300A,Los Angeles,CA,90025
28277,907 E 21St Street,Los Angeles,CA,90011
28281,4815 Valley Blvd #G,Los Angeles,CA,90032
28282,3640 Monon Street Apt #208,Los Angeles,CA,90027
28283,4972 Wadsworth Avenue,Los Angeles,CA,90011
28284,1337 Sanborn Avenue,Los Angeles,CA,90027
28288,1315 E 21St Street Apt #311,Los Angeles,CA,90011
28291,4922 S Central Avenue,Los Angeles,CA,90011
28293,4647 Kingswell Avenue Suite #107,Los Angeles,CA,90027
28296,1821 Winona Blvd Apt #4,Los Angeles,CA,90027
28298,1565 E 23Rd Street,Los Angeles,CA,90011
28299,1926 N Normandie Avenue,Los Angeles,CA,90027
28305,5028 Templeton Street #38874,Los Angeles,CA,90032
28307,2445 Lyric Avenue,Los Angeles,CA,90027
28308,1849 Camden Avenue Apt #4,Los Angeles,CA,90025
28311,1545 Brockton Avenue Apt #10,Los Angeles,CA,90025
28312,417 E 27Th Street,Los Angeles,CA,90011
28313,12121 Wilshire Blvd Suite #800,Los Angeles,CA,90025
28316,1845 Corinth Avenue #103,Los Angeles,CA,90025
28325,1672 N Western Avenue Unit #309,Los Angeles,CA,90027
28326,4945 Hollywood Blvd,Los Angeles,CA,90027
28327,1727 Armacost Avenue,Los Angeles,CA,90025
28334,1405 N New Hampshire Avenue Apt #303,Los Angeles,CA,90027
28335,1516 S Bundy Drive Suite #300,Los Angeles,CA,90025
28339,2460 N Eastern Avenue #15,Los Angeles,CA,90032
28340,12100 Wilshire Blvd Suite #1900,Los Angeles,CA,90025
28344,5200 Hollywood Blvd Apt #203,Los Angeles,CA,90027
28345,1339 Barry Avenue Apt #9,Los Angeles,CA,90025
28347,1800 Fairburn Avenue #109,Los Angeles,CA,90025
28351,2800 Hooper Avenue,Los Angeles,CA,90011
28357,1819 Camden Avenue Apt #4,Los Angeles,CA,90025
28360,4015 Wall Street #1,Los Angeles,CA,90011
28361,1820 N Edgemont Street Apt #6,Los Angeles,CA,90027
28363,5014 Williams Place,Los Angeles,CA,90032
28370,11740 Wilshire Blvd #1Sl,Los Angeles,CA,90025
28371,1911 Selby Avenue,Los Angeles,CA,90025
28372,1345 E 55Th Street,Los Angeles,CA,90011
28374,11766 Wilshire Blvd Suite #1150,Los Angeles,CA,90025
28379,2415 S Central Avenue,Los Angeles,CA,90011
28384,1901 Pelham Avenue Apt #5,Los Angeles,CA,90025
28385,3620 Amesbury Road,Los Angeles,CA,90027
28390,1749 N Serrano Avenue #116,Los Angeles,CA,90027
28391,4470 W Sunset Blvd Suite #107,Los Angeles,CA,90027
28397,1631 Barry Avenue Apt #10,Los Angeles,CA,90025
28398,3100 Riverside Drive Apt #366,Los Angeles,CA,90027
28399,873 E 55Th Street,Los Angeles,CA,90011
28402,4232 Los Feliz Blvd,Los Angeles,CA,90027
28404,1622 Armacost Avenue,Los Angeles,CA,90025
28406,2008 N Catalina Street,Los Angeles,CA,90027
28407,5151 State University Drive,Los Angeles,CA,90032
28408,5701 Compton Avenue,Los Angeles,CA,90011
28409,3756 Pueblo Avenue,Los Angeles,CA,90032
28412,3522 Stockbridge Avenue,Los Angeles,CA,90032
28419,3069 St George Street,Los Angeles,CA,90027
28425,1814 N Normandie Avenue Apt #107,Los Angeles,CA,90027
28426,1844 N Alexandria Avenue,Los Angeles,CA,90027
28427,11601 Wilshire Blvd Suite #500,Los Angeles,CA,90025
28430,307 E Jefferson Blvd #117,Los Angeles,CA,90011
28433,1344 N Hobart Blvd #117,Los Angeles,CA,90027
28434,1907 N Edgemont Street,Los Angeles,CA,90027
28439,12013 Wilshire Blvd Suite #A,Los Angeles,CA,90025
28440,680 E 41St Place,Los Angeles,CA,90011
28441,1830 Corinth Avenue Apt #2,Los Angeles,CA,90025
28443,1746 N Mariposa Avenue Apt #5,Los Angeles,CA,90027
28444,3816 Paloma Street,Los Angeles,CA,90011
28447,4523 Avalon Blvd #A,Los Angeles,CA,90011
28450,5416 1/2 Huntington Drive S,Los Angeles,CA,90032
28454,1915 Westholme Avenue,Los Angeles,CA,90025
28461,1543 1/2 N Kenmore Avenue,Los Angeles,CA,90027
28462,11645 Wilshire Blvd,Los Angeles,CA,90025
28465,2001 S Barrington Avenue Suite #203,Los Angeles,CA,90025
28468,1818 Fairburn Avenue #101,Los Angeles,CA,90025
28473,2117 Hillhurst Avenue,Los Angeles,CA,90027
28474,1840 N Kenmore Avenue Apt #307,Los Angeles,CA,90027
28476,4461 Yellowstone Street,Los Angeles,CA,90032
28477,2050 Granville Avenue,Los Angeles,CA,90025
28478,4470 W Sunset Blvd,Los Angeles,CA,90027
28479,1724 N Edgemont Street Apt #308,Los Angeles,CA,90027
28484,1440 Butler Avenue Apt #6,Los Angeles,CA,90025
28486,5429 Huntington Drive N Apt #4,Los Angeles,CA,90032
28487,1512 Amherst Avenue #407,Los Angeles,CA,90025
28488,12401 Wilshire Blvd Suite #303,Los Angeles,CA,90025
28491,5133 Chester Street,Los Angeles,CA,90032
28493,11062 La Grange Avenue Apt,Los Angeles,CA,90025
28497,1539 N Alexandria Avenue Apt #208,Los Angeles,CA,90027
28498,1516 N Normandie Avenue,Los Angeles,CA,90027
28499,11419 Santa Monica Blvd,Los Angeles,CA,90025
28501,1655 Greenfield Avenue Apt #15,Los Angeles,CA,90025
28505,4705 Franklin Avenue Apt #14,Los Angeles,CA,90027
28509,4003 Sunset Drive Apt #2,Los Angeles,CA,90027
28515,1940 Malcolm Avenue Apt #208,Los Angeles,CA,90025
28516,1638 N Kingsley Drive Apt #7,Los Angeles,CA,90027
28517,901 E 31St Street Suite #202,Los Angeles,CA,90011
28518,11601 Wilshire Blvd Suite #460,Los Angeles,CA,90025
28520,1436 Brockton Avenue #8,Los Angeles,CA,90025
28526,1539 N Alexandria Avenue Apt #208,Los Angeles,CA,90027
28529,1844 1/2 N Mariposa Avenue,Los Angeles,CA,90027
28532,2023 Veteran Avenue,Los Angeles,CA,90025
28534,5023 S Central Avenue,Los Angeles,CA,90011
28535,1323 S Carmelina Avenue Apt #102,Los Angeles,CA,90025
28536,2001 S Barrington Avenue #203,Los Angeles,CA,90025
28543,3100 Griffith Park Blvd,Los Angeles,CA,90027
28546,11422 Iowa Avenue Unit #7,Los Angeles,CA,90025
28554,1800 N Mariposa Avenue #1802,Los Angeles,CA,90027
28558,5300 W Sunset Blvd,Los Angeles,CA,90027
28561,4452 Dundee Drive,Los Angeles,CA,90027
28576,1800 N Normandie Avenue,Los Angeles,CA,90027
